NCDCID,WBAN,COOPID,CALL,NAME,ALT_NAME,COUNTR,Y,ST,COUNTY,LAT,LON,ELEV,UTC,STNTYPE
20028647,15908,,YRL,RED LAKE,RED LAKE,CANADA,,ON,,51.06667,-93.8,1230,-6,ASOS
20030346,41415,914226,GUM,GUAM INTL AP,GUAM NWSO TIYAN,GUAM,,GU,GUAM,13.48333,144.8,254,10,"ASOS,COOP,WXSVC"
20030369,41418,914855,GSN,SAIPAN INTL AP,SAIPAN INTL AP,NORTHE,RN MARIANA ISL,MP,SAIPAN,15.11667,145.71667,215,10,"ASOS,COOP"
20023988,11641,668812,SJU,SAN JUAN L M MARIN AP,SAN JUAN INTL AP,PUERTO,RICO,PR,,18.4325,-66.01083,9,-4,"ASOS,COOP"
20022040,26451,500280,ANC,ANCHORAGE INTL AP,ANCHORAGE INTL AP,UNITED,STATES,AK,ANCHORAGE BOROUGH,61.169,-150.0278,120,-9,"AIRWAYS,ASOS,COOP"
20022052,26409,,MRI,ANCHORAGE MERRILL FLD,ANCHORAGE MERRILL FLD,UNITED,STATES,AK,ANCHORAGE BOROUGH,61.21694,-149.855,138,-9,"AIRWAYS,ASOS"
20021784,25308,500352,ANN,ANNETTE ISLAND AP,ANNETTE WSO AP,UNITED,STATES,AK,PRINCE OF WALES-OUTER KETCHIKA,55.0389,-131.5787,109,-9,"AIRWAYS,ASOS,COOP"
20022476,27502,500546,BRW,BARROW POST ROGERS AP,BARROW WSO AP,UNITED,STATES,AK,NORTH SLOPE BOROUGH,71.2834,-156.7815,31,-9,"ASOS,COOP"
20022008,26615,500754,BET,BETHEL AP,BETHEL AP,UNITED,STATES,AK,BETHEL,60.785,-161.8293,102,-9,"AIRWAYS,ASOS,COOP"
20022377,26533,500761,BTT,BETTLES AP,BETTLES AP,UNITED,STATES,AK,YUKON-KOYUKUK,66.54,-151.31,643,-9,"AIRWAYS,ASOS,COOP"
20022248,26415,500770,BIG,BIG DELTA AP,BIG DELTA FAA/ASOS AP,UNITED,STATES,AK,SOUTHEAST FAIRBANKS,63.9944,-145.7214,1277,-9,"AIRWAYS,ASOS,COOP"
20021790,25624,502102,CDB,COLD BAY AP,COLD BAY AP,UNITED,STATES,AK,ALEUTIANS EAST BOROUGH,55.22083,-162.7325,78,-9,"AIRWAYS,ASOS,COOP"
20021988,26410,502177,CDV,CORDOVA M K SMITH AP,CORDOVA AP,UNITED,STATES,AK,VALDEZ-CORDOVA,60.4888,-145.4511,31,-9,"ASOS,COOP"
20022444,27406,502316,SCC,DEADHORSE AP,DEADHORSE,UNITED,STATES,AK,NORTH SLOPE BOROUGH,70.1917,-148.4772,61,-9,"AIRWAYS,ASOS,COOP"
30000852,26643,,DEE,DEERING AP,DEERING AP,UNITED,STATES,AK,NORTHWEST ARCTIC BOROUGH,66.06889,-162.76389,-99999,-9,"AIRWAYS,ASOS"
30000856,26422,,EAA,EAGLE AP,EAGLE AP,UNITED,STATES,AK,SOUTHEAST FAIRBANKS,64.77667,-141.14833,-99999,-9,"AIRWAYS,ASOS"
20022291,26411,502968,FAI,FAIRBANKS INTL AP,FAIRBANKS INTL AP,UNITED,STATES,AK,FAIRBANKS NORTH STAR BOROUGH,64.8039,-147.8761,432,-9,"ASOS,COOP"
20022163,26425,503465,GKN,GULKANA AP,GULKANA AP,UNITED,STATES,AK,VALDEZ-CORDOVA,62.1591,-145.4588,1562,-9,"AIRWAYS,ASOS,COOP"
20021913,25323,503490,HNS,HAINES AP,HAINES AP,UNITED,STATES,AK,HAINES BOROUGH,59.24333,-135.50944,15,-9,"AIRWAYS,ASOS,COOP"
20021939,25507,503665,HOM,HOMER AP,HOMER AP,UNITED,STATES,AK,KENAI PENINSULA BOROUGH,59.642,-151.4908,64,-9,"ASOS,COOP"
20021949,25506,503905,ILI,ILIAMNA AP,ILIAMNA AP,UNITED,STATES,AK,LAKE AND PENINSULA BOROUGH,59.7494,-154.9089,143,-9,"AIRWAYS,ASOS,COOP"
20021885,25309,504100,JNU,JUNEAU INTL AP,JUNEAU AP,UNITED,STATES,AK,JUNEAU BOROUGH,58.3566,-134.564,16,-9,"AIRWAYS,ASOS,COOP"
20022264,26502,,KAL,KALTAG AP,KALTAG AP,UNITED,STATES,AK,YUKON-KOYUKUK,64.32667,-158.74167,-99999,-9,"AIRWAYS,ASOS"
20021996,26523,504546,ENA,KENAI MUNI AP,KENAI AP,UNITED,STATES,AK,KENAI PENINSULA BOROUGH,60.5797,-151.2391,91,-9,"AIRWAYS,ASOS,COOP"
10000202,25325,504590,KTN,KETCHIKAN INTL AP,KETCHIKAN,UNITED,STATES,AK,KETCHIKAN GATEWAY BOROUGH,55.35667,-131.71167,76,-9,"AIRWAYS,ASOS,COOP"
20021899,25503,504766,AKN,KING SALMON AP,KING SALMON AP,UNITED,STATES,AK,BRISTOL BAY BOROUGH,58.6829,-156.6563,67,-9,"ASOS,COOP"
30000862,26642,,KVL,KIVALINA AP,KIVALINA AP,UNITED,STATES,AK,NORTHWEST ARCTIC BOROUGH,67.73167,-164.54833,-99999,-9,"AIRWAYS,ASOS"
30000853,25367,504901,AKW,KLAWOCK AP,KLAWOCK AP,UNITED,STATES,AK,PRINCE OF WALES-OUTER KETCHIKA,55.58,-133.075,12,-9,"AIRWAYS,ASOS,COOP"
20021863,25501,504988,ADQ,KODIAK AP,KODIAK AP,UNITED,STATES,AK,KODIAK ISLAND BOROUGH,57.75111,-152.48556,80,-9,"AIRWAYS,ASOS,COOP"
20022376,26616,505076,OTZ,KOTZEBUE RALPH WEIN AP,KOTZEBUE WSO AP,UNITED,STATES,AK,NORTHWEST ARCTIC BOROUGH,66.86667,-162.63333,30,-9,"AIRWAYS,ASOS,COOP"
20022204,26510,505769,MCG,MCGRATH AP,MCGRATH AP,UNITED,STATES,AK,YUKON-KOYUKUK,62.9574,-155.6103,333,-9,"AIRWAYS,ASOS,COOP"
20022273,26435,,ENN,NENANA MUNI AP,NENANA MUNI AP,UNITED,STATES,AK,YUKON-KOYUKUK,64.55,-149.07167,360,-9,ASOS
20022270,26617,506496,OME,NOME MUNI AP,NOME WSO AP,UNITED,STATES,AK,NOME,64.5111,-165.44,13,-9,"AIRWAYS,ASOS,COOP"
20022199,26412,506586,ORT,NORTHWAY AP,NORTHWAY AP,UNITED,STATES,AK,SOUTHEAST FAIRBANKS,62.9617,-141.9378,1713,-9,"AIRWAYS,ASOS,COOP"
30000855,27515,,AQT,NUIQSUT AP,NUIQSUT AP,UNITED,STATES,AK,NORTH SLOPE BOROUGH,70.21167,-151.00167,-99999,-9,"AIRWAYS,ASOS"
20022098,25331,506867,PAQ,PALMER MUNI AP,PALMER AP,UNITED,STATES,AK,MATANUSKA-SUSITNA BOROUGH,61.5961,-149.0916,230,-9,"AIRWAYS,ASOS,COOP"
20022005,26492,,POR,PORTAGE GLACIER V C,PORTAGE GLACIER V C,UNITED,STATES,AK,ANCHORAGE BOROUGH,60.785,-148.83889,103,-9,"AIRWAYS,ASOS"
30000876,25516,,SOV,SELDOVIA AP,SELDOVIA AP,UNITED,STATES,AK,KENAI PENINSULA BOROUGH,59.44333,-151.70167,-99999,-9,"AIRWAYS,ASOS"
20021967,26438,,SWD,SEWARD AP,SEWARD AP,UNITED,STATES,AK,KENAI PENINSULA BOROUGH,60.12833,-149.41667,-99999,-9,"AIRWAYS,ASOS"
20021837,25333,508494,SIT,SITKA AIRPORT,SITKA AIRPORT,UNITED,STATES,AK,SITKA BOROUGH,57.04806,-135.36472,14,-9,"ASOS,COOP"
10000355,25335,508528,SGY,SKAGWAY AP,SKAGWAY AP,UNITED,STATES,AK,SKAGWAY-HOONAH-ANGOON,59.45556,-135.32389,20,-9,"AIRWAYS,ASOS,COOP"
30000854,25628,,PBV,ST GEORGE ISLAND AP,ST GEORGE ISLAND AP,UNITED,STATES,AK,BETHEL,56.6,-169.565,-99999,-9,"AIRWAYS,ASOS"
20021843,25713,508118,SNP,ST PAUL ISLAND AP,ST PAUL ISLAND AP,UNITED,STATES,AK,ALEUTIANS WEST,57.15528,-170.22222,35,-9,"AIRWAYS,ASOS,COOP"
20022173,26528,508976,TKA,TALKEETNA AP,TALKEETNA AP,UNITED,STATES,AK,MATANUSKA-SUSITNA BOROUGH,62.32,-150.095,350,-9,"ASOS,COOP"
20022319,26529,509014,TAL,TANANA CALHOUN MEM AP,TANANA AP,UNITED,STATES,AK,YUKON-KOYUKUK,65.175,-152.1067,222,-9,"AIRWAYS,ASOS,COOP"
30000830,27503,,AWI,WAINWRIGHT AP,WAINWRIGHT AP,UNITED,STATES,AK,NORTH SLOPE BOROUGH,70.63917,-159.995,-99999,-9,"AIRWAYS,ASOS"
20021933,25339,509941,YAK,YAKUTAT STATE AP,YAKUTAT AP,UNITED,STATES,AK,YAKUTAT BOROUGH,59.512,-139.6712,33,-9,"AIRWAYS,ASOS,COOP"
10000485,53864,10116,EET,ALABASTER SHELBY CO AP,ALABASTER SHELBY CO AP,UNITED,STATES,AL,SHELBY,33.17833,-86.78167,565,-6,"ASOS,COOP,UPPERAIR"
30002893,53843,,79J,ANDALUSIA OPP AP,ANDALUSIA OPP AP,UNITED,STATES,AL,COVINGTON,31.30889,-86.39389,-99999,-6,"ASOS,MILITARY"
20000233,13871,10272,ANB,ANNISTON METRO AP,ANNISTON ARPT ASOS,UNITED,STATES,AL,CALHOUN,33.5872,-85.8556,594,-6,"AIRWAYS,ASOS,COOP"
20000236,13876,10831,BHM,BIRMINGHAM AP,BIRMINGHAM AP ASOS,UNITED,STATES,AL,JEFFERSON,33.56556,-86.745,615,-6,"AIRSAMPLE,AIRWAYS,ASOS,COOP"
20000317,53852,,DCU,DECATUR PRYOR FLD,DECATUR PRYOR FLD,UNITED,STATES,AL,LIMESTONE,34.6525,-86.94528,-99999,-6,"AIRWAYS,ASOS"
20000051,13839,12372,DHN,DOTHAN RGNL AP,DOTHAN FAA AIRPORT,UNITED,STATES,AL,DALE,31.3167,-85.45,374,-6,"AIRWAYS,ASOS,COOP"
20000374,53820,,GZH,EVERGREEN MIDDLETON FLD,EVERGREEN MIDDLETON FLD,UNITED,STATES,AL,CONECUH,31.41556,-87.04417,-99999,-6,"AIRWAYS,ASOS"
30002895,63870,,0J4,FLORALA MUNI AP,FLORALA MUNI AP,UNITED,STATES,AL,MONTGOMERY,31.0425,-86.31167,-99999,-6,"ASOS,MILITARY"
30002726,53861,,LOR,FT RUCKER LOWE ARMY HELIPORT,FT RUCKER LOWE ARMY HELIPORT,UNITED,STATES,AL,DALE,31.35583,-85.75111,244,-6,"ASOS,MILITARY"
30002956,63874,,PRN,GREENVILLE CRENSHAW AP,GREENVILLE CRENSHAW AP,UNITED,STATES,AL,BUTLER,31.84556,-86.61083,-99999,-6,"ASOS,MILITARY"
20000315,3856,14064,HSV,HUNTSVILLE INTL AP,HUNTSVILLE INTL AP,UNITED,STATES,AL,MADISON,34.64389,-86.78611,624,-6,"ASOS,COOP"
20000018,13838,,BFM,MOBILE DWTN AP,MOBILE DWTN AP,UNITED,STATES,AL,MOBILE,30.62639,-88.06806,-99999,-6,"AIRWAYS,ASOS"
20000021,13894,15478,MOB,MOBILE RGNL AP,MOBILE REGIONAL AP,UNITED,STATES,AL,MOBILE,30.68833,-88.24556,215,-6,"ASOS,COOP,UPPERAIR"
20000127,13895,15550,MGM,MONTGOMERY AP,MONTGOMERY AP ASOS,UNITED,STATES,AL,MONTGOMERY,32.2997,-86.4075,202,-6,"AIRSAMPLE,ASOS,COOP"
10000572,13896,15749,MSL,MUSCLE SHOALS RGNL AP,MUSCLE SHOALS AP,UNITED,STATES,AL,COLBERT,34.7441,-87.5997,540,-6,"AIRWAYS,ASOS,COOP,USHCN"
20000057,63873,,HEY,OZARK FT RUCKER,OZARK FT RUCKER,UNITED,STATES,AL,DALE,31.35,-85.66667,-99999,-6,"ASOS,MILITARY"
20000096,3878,,TOI,TROY MUNI AP,TROY MUNI AP,UNITED,STATES,AL,PIKE,31.86056,-86.01222,-99999,-6,ASOS
10000612,93806,18383,TCL,TUSCALOOSA MUNI AP,TUSCALOOSA ARPT ASOS,UNITED,STATES,AL,TUSCALOOSA,33.2119,-87.6161,150,-6,"AIRWAYS,ASOS,COOP"
30002892,63872,,EUF,WEEDON FLD AP,WEEDON FLD AP,UNITED,STATES,AL,BARBOUR,31.95139,-85.12889,-99999,-6,"ASOS,MILITARY"
30000678,53869,,HKA,BLYTHEVILLE MUNI AP,BLYTHEVILLE MUNI AP,UNITED,STATES,AR,MISSISSIPPI,35.94028,-89.83083,-99999,-6,"AIRWAYS,ASOS"
30001163,53925,31953,DEQ,DE QUEEN SEVIER CO AP,DE QUEEN SEVIER CO AP,UNITED,STATES,AR,SEVIER,34.05,-94.40083,355,-6,"ASOS,COOP"
20000392,93992,32300,ELD,EL DORADO S AR RGNL AP,EL DORADO GOODWIN FLD,UNITED,STATES,AR,UNION,33.22083,-92.81417,252,-6,"AIRWAYS,ASOS,COOP"
20000719,93993,32420,FYV,FAYETTEVILLE DRAKE FLD,FAYETTEVILLE DRAKE FLD,UNITED,STATES,AR,WASHINGTON,36.0097,-94.1694,1251,-6,"ASOS,COOP"
30000727,53922,,XNA,FAYETTEVILLE NW AR AP,FAYETTEVILLE NW AR AP,UNITED,STATES,AR,WASHINGTON,36.28333,-94.3,1287,-6,"AIRWAYS,ASOS"
20000623,13964,32574,FSM,FT SMITH RGNL AP,FT SMITH RGNL AP,UNITED,STATES,AR,SEBASTIAN,35.333,-94.3625,449,-6,"AIRSAMPLE,ASOS,COOP"
20000739,13971,33165,HRO,HARRISON BOONE CO AP,HARRISON BOONE CO AP,UNITED,STATES,AR,BOONE,36.2668,-93.1566,1374,-6,"ASOS,COOP"
20000511,3962,33470,HOT,HOT SPRINGS ASOS,HOT SPRINGS ASOS,UNITED,STATES,AR,GARLAND,34.29,-93.06,535,-6,"ASOS,COOP"
20000695,3953,,JBR,JONESBORO MUNI AP,JONESBORO MUNI AP,UNITED,STATES,AR,CRAIGHEAD,35.83111,-90.64639,-99999,-6,"AIRWAYS,ASOS"
20000537,13963,34248,LIT,LITTLE ROCK AP ADAMS FLD,LITTLE ROCK ADAMS FLD,UNITED,STATES,AR,PULASKI,34.7273,-92.2389,258,-6,"AIRWAYS,ASOS,COOP"
30000598,53919,34900,LLQ,MONTICELLO MUNI AP,MONTICELLO MUNI AP,UNITED,STATES,AR,DREW,33.6361,-91.7556,290,-6,"ASOS,COOP"
30015213,53921,34991,MWT,MOUNT IDA ASOS,MOUNT IDA ASOS,UNITED,STATES,AR,MONTGOMERY,34.5467,-93.57806,702,-6,"AIRWAYS,ASOS,COOP"
30000597,53918,,BPK,MOUNTAIN HOME BAXTER AP,MOUNTAIN HOME BAXTER AP,UNITED,STATES,AR,BAXTER,36.36889,-92.47028,-99999,-6,"AIRWAYS,ASOS"
20000473,93988,,PBF,PINE BLUFF GRIDER FLD,PINE BLUFF GRIDER FLD,UNITED,STATES,AR,JEFFERSON,34.175,-91.93472,-99999,-6,ASOS
30000616,53920,,RUE,RUSSELLVILLE MUNI AP,RUSSELLVILLE MUNI AP,UNITED,STATES,AR,POPE,35.25778,-93.09472,-99999,-6,"AIRWAYS,ASOS"
20000404,13977,37048,TXK,TEXARKANA WEBB FLD,TEXARKANA WEBB FLD,UNITED,STATES,AR,MILLER,33.4536,-94.0074,361,-6,"ASOS,COOP"
20000829,93026,22664,DUG,DOUGLAS BISBEE INL AP,DOUGLAS BISBEE INTL AP,UNITED,STATES,AZ,COCHISE,31.4583,-109.6061,4105,-7,"ASOS,COOP"
20001230,3103,23010,FLG,FLAGSTAFF PULLIAM AP,FLAGSTAFF AP,UNITED,STATES,AZ,COCONINO,35.1441,-111.6663,7003,-7,"ASOS,COOP"
20000838,3124,,FHU,FORT HUACHUCA,FORT HUACHUCA,UNITED,STATES,AZ,COCHISE,31.58833,-110.34417,-99999,-7,ASOS
10000857,3195,,GCN,GRAND CANYON NP AP,GRAND CANYON NP AP,UNITED,STATES,AZ,COCONINO,35.94611,-112.15472,6606,-7,"AIRWAYS,ASOS"
10000865,93167,24640,IGM,KINGMAN MOHAVE CO AP,KINGMAN AP,UNITED,STATES,AZ,MOHAVE,35.2577,-113.933,3420,-7,"ASOS,COOP"
20000828,3196,,OLS,NOGALES INTL AP,NOGALES INTL AP,UNITED,STATES,AZ,SANTA CRUZ,31.42083,-110.84583,-99999,-7,"AIRWAYS,ASOS"
20001335,3162,,PGA,PAGE MUNI AP,PAGE MUNI AP,UNITED,STATES,AZ,COCONINO,36.92611,-111.44778,4310,-7,ASOS
20001069,3184,,DVT,PHOENIX DEER VALLEY MUNI AP,PHOENIX DEER VALLEY MUNI AP,UNITED,STATES,AZ,MARICOPA,33.68833,-112.08167,1455,-7,"AIRWAYS,ASOS"
20001019,23183,26481,PHX,PHOENIX SKY HARBOR INTL AP,PHOENIX AP,UNITED,STATES,AZ,MARICOPA,33.4277,-112.0038,1107,-7,"ASOS,COOP"
20001188,23184,,PRC,PRESCOTT LOVE FLD,PRESCOTT LOVE FLD,UNITED,STATES,AZ,YAVAPAI,34.65167,-112.42083,-99999,-7,"AIRWAYS,ASOS"
20000951,93084,,SAD,SAFFORD MUNI AP,SAFFORD MUNI AP,UNITED,STATES,AZ,GRAHAM,32.85472,-109.63528,-99999,-7,"AIRWAYS,ASOS"
20001065,3192,,SDL,SCOTTSDALE MUNI AP,SCOTTSDALE MUNI AP,UNITED,STATES,AZ,MARICOPA,33.62278,-111.91056,1473,-7,"AIRWAYS,ASOS"
10000932,93027,,SJN,ST JOHNS INDUSTRIAL AP,ST JOHNS INDUSTRIAL AP,UNITED,STATES,AZ,APACHE,34.51833,-109.37917,-99999,-7,"AIRWAYS,ASOS"
20000885,23160,28820,TUS,TUCSON INTL AP,TUCSON INTL AP,UNITED,STATES,AZ,PIMA,32.1313,-110.9552,2549,-7,"ASOS,COOP"
30000545,3029,,RQE,WINDOW ROCK AP,WINDOW ROCK AP,UNITED,STATES,AZ,APACHE,35.6575,-109.06139,-99999,-7,ASOS
20001223,23194,29439,INW,WINSLOW MUNI AP,WINSLOW AP,UNITED,STATES,AZ,NAVAJO,35.0281,-110.7208,4886,-7,"ASOS,COOP"
30000580,94299,,AAT,ALTURAS MUNI AP,ALTURAS MUNI AP,UNITED,STATES,CA,MODOC,41.49139,-120.56444,-99999,-8,ASOS
20003155,24283,,ACV,ARCATA EUREKA AP,ARCATA EUREKA AP,UNITED,STATES,CA,HUMBOLDT,40.97806,-124.10861,200,-8,"AIRWAYS,ASOS"
10001012,23191,,AVX,AVALON CATALINA AP,AVALON CATALINA AP,UNITED,STATES,CA,LOS ANGELES,33.405,-118.41583,-99999,-8,ASOS
20002050,23155,40442,BFL,BAKERSFIELD AP,BAKERSFIELD AP,UNITED,STATES,CA,KERN,35.4344,-119.0542,489,-8,"ASOS,COOP"
10001104,23161,42257,DAG,BARSTOW DAGGETT AP,DAGGETT AP,UNITED,STATES,CA,SAN BERNARDINO,34.8536,-116.7858,1917,-8,"ASOS,COOP"
20002386,23157,40822,BIH,BISHOP AP,BISHOP AP,UNITED,STATES,CA,INYO,37.3711,-118.358,4102,-8,"ASOS,COOP"
20002881,23225,40897,BLU,BLUE CANYON AP,BLUE CANYON NYACK AP,UNITED,STATES,CA,PLACER,39.2774,-120.7102,5276,-8,"ASOS,COOP"
20001534,23158,40927,BLH,BLYTHE AP,BLYTHE ASOS,UNITED,STATES,CA,RIVERSIDE,33.6186,-114.7142,395,-8,"ASOS,COOP"
20001750,23152,,BUR,BURBANK GLENDALE PASADENA AP,BURBANK GLENDALE PASADENA AP,UNITED,STATES,CA,LOS ANGELES,34.20056,-118.3575,-99999,-8,"AIRWAYS,ASOS"
20001792,23136,,CMA,CAMARILLO AP,CAMARILLO AP,UNITED,STATES,CA,VENTURA,34.21667,-119.08333,-99999,-8,"AIRWAYS,ASOS"
20001394,3164,41424,CZZ,CAMPO,CAMPO,UNITED,STATES,CA,SAN DIEGO,32.6233,-116.4728,2630,-8,"AIRWAYS,ASOS,COOP"
20001466,3177,,CRQ,CARLSBAD PALOMAR AP,CARLSBAD PALOMAR AP,UNITED,STATES,CA,SAN DIEGO,33.12806,-117.27944,-99999,-8,"AIRWAYS,ASOS"
20001647,3179,,CNO,CHINO AP,CHINO AP,UNITED,STATES,CA,SAN BERNARDINO,33.97528,-117.63611,-99999,-8,"AIRWAYS,ASOS"
20002564,23254,41964,CCR,CONCORD BUCHANAN FLD,CONCORD BUCHANAN FLD,UNITED,STATES,CA,CONTRA COSTA,37.9917,-122.055,18,-8,"AIRWAYS,ASOS,COOP"
30015728,53175,,AJO,CORONA MUNICIPAL AP,CORONA MUNICIPAL AP,UNITED,STATES,CA,RIVERSIDE,33.89765,-117.60243,533,-8,ASOS
20003236,24286,,CEC,CRESCENT CITY MCNAMARA AP,CRESCENT CITY MCNAMARA AP,UNITED,STATES,CA,DEL NORTE,41.78028,-124.23667,-99999,-8,ASOS
20001543,3104,,TRM,DESERT RESORTS RGNL AP,DESERT RESORTS RGNL AP,UNITED,STATES,CA,RIVERSIDE,33.62667,-116.15944,-99999,-8,ASOS
20001424,23199,,NJK,EL CENTRO NAF,EL CENTRO NAF,UNITED,STATES,CA,IMPERIAL,32.81667,-115.68333,-99999,-8,ASOS
10001177,93193,43257,FAT,FRESNO YOSEMITE INTL AP,FRESNO YOSEMITE INT'L,UNITED,STATES,CA,FRESNO,36.78,-119.7194,333,-8,"ASOS,COOP,USHCN"
20001614,3166,,FUL,FULLERTON MUNI AP,FULLERTON MUNI AP,UNITED,STATES,CA,ORANGE,33.87194,-117.97889,-99999,-8,"AIRWAYS,ASOS"
30000567,53119,,HJO,HANFORD MUNI AP,HANFORD MUNI AP,UNITED,STATES,CA,KINGS,36.31889,-119.62889,-99999,-8,"AIRWAYS,ASOS"
20001640,3167,,HHR,HAWTHORNE MUNI AP,HAWTHORNE MUNI AP,UNITED,STATES,CA,LOS ANGELES,33.92278,-118.33417,-99999,-8,"AIRWAYS,ASOS"
20002466,93228,43861,HWD,HAYWARD AIR TERMINAL,HAYWARD AIR TERMINAL,UNITED,STATES,CA,ALAMEDA,37.6542,-122.115,43,-8,"AIRWAYS,ASOS,COOP"
20001392,93115,,NRS,IMPERIAL BEACH REAM FLD NAS,IMPERIAL BEACH REAM FLD NAS,UNITED,STATES,CA,SAN DIEGO,32.56667,-117.11667,-99999,-8,ASOS
20001423,3144,,IPL,IMPERIAL CO AP,IMPERIAL CO AP,UNITED,STATES,CA,IMPERIAL,32.83417,-115.57861,-58,-8,ASOS
20001955,3159,44749,WJF,LANCASTER WM J FOX FLD,LANCASTER ATC,UNITED,STATES,CA,LOS ANGELES,34.7411,-118.2116,2338,-8,"ASOS,COOP"
20002470,23285,44995,LVK,LIVERMORE MUNI AP,LIVERMORE MUNI AP,UNITED,STATES,CA,ALAMEDA,37.6927,-121.8144,393,-8,"AIRWAYS,ASOS,COOP"
20001598,23129,45085,LGB,LONG BEACH DAUGHERTY FLD,LONG BCH DAUGHERTY AP,UNITED,STATES,CA,LOS ANGELES,33.8116,-118.1463,31,-8,"ASOS,COOP"
30014220,53141,,SLI,LOS ALAMITOS AAF,LOS ALAMITOS AAF,UNITED,STATES,CA,ORANGE,33.79,-118.05194,-99999,-8,ASOS
20003285,93134,45115,CQT,LOS ANGELES DWTN USC CAMPUS,LOS ANGELES DWTN USC,UNITED,STATES,CA,LOS ANGELES,34.0236,-118.2911,179,-8,"ASOS,COOP"
20001642,23174,45114,LAX,LOS ANGELES INTL AP,LOS ANGELES INTL AP,UNITED,STATES,CA,LOS ANGELES,33.938,-118.3888,97,-8,"ASOS,COOP"
30000582,93242,,MAE,MADERA MUNI AP,MADERA MUNI AP,UNITED,STATES,CA,MADERA,36.98778,-120.11056,-99999,-8,"AIRWAYS,ASOS"
20002846,93205,45388,MYV,MARYSVILLE YUBA CO AP,MARYSVILLE AP (ASOS),UNITED,STATES,CA,YUBA,39.1019,-121.5677,62,-8,"ASOS,COOP"
10100106,23257,,MCE,MERCED MUNI AP,MERCED MUNI AP,UNITED,STATES,CA,MERCED,37.28472,-120.51278,152,-8,"AIRWAYS,ASOS"
20002451,23258,45738,MOD,MODESTO CITY CO AP,MODESTO AP,UNITED,STATES,CA,STANISLAUS,37.6241,-120.9505,73,-8,"AIRWAYS,ASOS,COOP"
20002413,23244,,NUQ,MOFFETT FEDERAL AIRFIELD,MOFFETT FEDERAL AIRFIELD,UNITED,STATES,CA,SANTA CLARA,37.40583,-122.04806,39,-8,ASOS
20003224,24259,,SIY,MONTAGUE SISKIYOU AP,MONTAGUE SISKIYOU AP,UNITED,STATES,CA,SISKIYOU,41.78139,-122.46806,-99999,-8,ASOS
20002236,23259,,MRY,MONTEREY PENINSUL AP,MONTEREY PENINSUL AP,UNITED,STATES,CA,MONTEREY,36.58806,-121.84528,165,-8,"AIRWAYS,ASOS"
10500026,24215,,MHS,MT SHASTA,MT SHASTA,UNITED,STATES,CA,SISKIYOU,41.3325,-122.33278,3535,-8,ASOS
20002633,93227,46066,APC,NAPA CO AP,NAPA CO AP,UNITED,STATES,CA,NAPA,38.2102,-122.2847,14,-8,"AIRWAYS,ASOS,COOP"
10001334,23179,46118,EED,NEEDLES AP,NEEDLES AP,UNITED,STATES,CA,SAN BERNARDINO,34.7675,-114.6188,890,-8,"ASOS,COOP,USHCN,WXSVC"
20002472,23230,,OAK,OAKLAND METRO INTL AP,OAKLAND METRO INTL AP,UNITED,STATES,CA,ALAMEDA,37.72139,-122.22083,6,-8,"ASOS,UPPERAIR"
30000753,53121,,OKB,OCEANSIDE MUNI AP,OCEANSIDE MUNI AP,UNITED,STATES,CA,SAN DIEGO,33.21944,-117.34944,-99999,-8,"AIRWAYS,ASOS"
20001682,3102,,ONT,ONTARIO INTL AP,ONTARIO INTL AP,UNITED,STATES,CA,SAN BERNARDINO,34.05611,-117.60028,949,-8,"AIRWAYS,ASOS"
20002940,93210,,OVE,OROVILLE MUNI AP,OROVILLE MUNI AP,UNITED,STATES,CA,BUTTE,39.49,-121.61833,-99999,-8,"AIRWAYS,ASOS"
20001795,93110,,OXR,OXNARD VENTURA CO AP,OXNARD VENTURA CO AP,UNITED,STATES,CA,VENTURA,34.20083,-119.20694,36,-8,"AIRWAYS,ASOS"
20001591,,46635,,PALM SPRINGS,PALM SPRINGS,UNITED,STATES,CA,RIVERSIDE,33.8275,-116.5097,425,-8,"ASOS,COOP"
30000583,93138,,PSP,PALM SPRINGS RGNL AP,PALM SPRINGS RGNL AP,UNITED,STATES,CA,RIVERSIDE,33.82806,-116.50528,421,-8,"AIRWAYS,ASOS"
20001925,23182,,PMD,PALMDALE AP,PALMDALE AP,UNITED,STATES,CA,LOS ANGELES,34.62944,-118.08361,2524,-8,"AIRWAYS,ASOS"
20002078,93209,46742,PRB,PASO ROBLES MUNI AP,PASO ROBLES MUNI AP,UNITED,STATES,CA,SAN LUIS OBISPO,35.6697,-120.6283,810,-8,"ASOS,COOP"
30000568,53120,,RNM,RAMONA AP,RAMONA AP,UNITED,STATES,CA,SAN DIEGO,33.0375,-116.91583,-99999,-8,ASOS
10001395,24216,47292,RBL,RED BLUFF MUNI AP,RED BLUFF MUNI AP,UNITED,STATES,CA,TEHAMA,40.1519,-122.2536,353,-8,"ASOS,COOP"
10001399,24257,47304,RDD,REDDING MUNI AP,REDDING AP,UNITED,STATES,CA,SHASTA,40.5175,-122.2986,497,-8,"ASOS,COOP,USHCN"
20001646,3171,,RAL,RIVERSIDE MUNI AP,RIVERSIDE MUNI AP,UNITED,STATES,CA,RIVERSIDE,33.95194,-117.43861,805,-8,"AIRWAYS,ASOS"
20002685,23232,47630,SAC,SACRAMENTO EXECUTIVE AP,SACRAMENTO AP ASOS,UNITED,STATES,CA,SACRAMENTO,38.5069,-121.495,15,-8,"AIRWAYS,ASOS,COOP"
20002742,93225,,SMF,SACRAMENTO METRO AP,SACRAMENTO METRO AP,UNITED,STATES,CA,SACRAMENTO,38.69556,-121.58972,23,-8,"AIRWAYS,ASOS"
20002257,23233,47669,SNS,SALINAS MUNICIPAL AP,SALINAS AP,UNITED,STATES,CA,MONTEREY,36.6636,-121.6081,74,-8,"ASOS,COOP"
10001447,3178,,SDM,SAN DIEGO BROWN FLD,SAN DIEGO BROWN FLD,UNITED,STATES,CA,SAN DIEGO,32.57222,-116.97944,515,-8,ASOS
10001444,23188,47740,SAN,SAN DIEGO LINDBERGH FLD,SAN DIEGO WSO AP,UNITED,STATES,CA,SAN DIEGO,32.7336,-117.1831,15,-8,"ASOS,COOP"
10001443,3131,,MYF,SAN DIEGO MONTGOMERY FLD,SAN DIEGO MONTGOMERY FLD,UNITED,STATES,CA,SAN DIEGO,32.81583,-117.13944,417,-8,"AIRWAYS,ASOS"
10001448,23234,47769,SFO,SAN FRANCISCO INTL AP,SAN FRANCISCO INTL AP,UNITED,STATES,CA,SAN MATEO,37.6197,-122.3647,8,-8,"ASOS,COOP"
20002400,23293,47821,,SAN JOSE,SAN JOSE,UNITED,STATES,CA,SANTA CLARA,37.3591,-121.924,51,-8,"ASOS,COOP"
10001454,93206,,SBP,SAN LUIS OBISPO AP,SAN LUIS OBISPO AP,UNITED,STATES,CA,SAN LUIS OBISPO,35.23722,-120.64139,200,-8,ASOS
20002082,93226,,87Q,SAN SIMEON PT PIEDRAS BLANCAS,SAN SIMEON PT PIEDRAS BLANCAS,UNITED,STATES,CA,SAN LUIS OBISPO,35.66556,-121.28472,59,-8,"AIRWAYS,ASOS"
20001957,23187,47735,SDB,SANDBERG,SANDBERG,UNITED,STATES,CA,LOS ANGELES,34.7436,-118.7242,4510,-8,"ASOS,COOP"
20001551,93184,,SNA,SANTA ANA JOHN WAYNE AP,SANTA ANA JOHN WAYNE AP,UNITED,STATES,CA,ORANGE,33.68,-117.86639,-99999,-8,"AIRWAYS,ASOS"
20001875,23190,47905,SBA,SANTA BARBARA MUNI AP,SANTA BARBARA MUNI AP,UNITED,STATES,CA,SANTA BARBARA,34.4258,-119.8425,9,-8,"AIRWAYS,ASOS,COOP"
20001985,23273,47946,SMX,SANTA MARIA PUBLIC AP,SANTA MARIA PUBLIC AP,UNITED,STATES,CA,SANTA BARBARA,34.8994,-120.4486,242,-8,"ASOS,COOP"
20001666,93197,47951,SMO,SANTA MONICA MUNI AP,SANTA MONICA WB AP,UNITED,STATES,CA,LOS ANGELES,34.01583,-118.45139,174,-8,"ASOS,COOP"
20002692,23213,47971,STS,SANTA ROSA SONOMA CO AP,SANTA ROSA SONOMA CO AP,UNITED,STATES,CA,SONOMA,38.5038,-122.8102,114,-8,"AIRWAYS,ASOS,COOP"
20002790,93230,48762,TVL,SOUTH LAKE TAHOE AP,SOUTH LAKE TAHOE AP,UNITED,STATES,CA,EL DORADO,38.8983,-119.9947,6314,-8,"ASOS,COOP"
20002530,23237,48558,SCK,STOCKTON METRO AP,STOCKTON AP,UNITED,STATES,CA,SAN JOAQUIN,37.8891,-121.2258,26,-8,"ASOS,COOP"
20002852,23275,,UKI,UKIAH MUNI AP,UKIAH MUNI AP,UNITED,STATES,CA,MENDOCINO,39.12583,-123.20083,601,-8,"AIRWAYS,ASOS"
30000579,93241,49203,VCB,VACAVILLE NUT TREE AP,VACAVILLE NUT TREE AP ASOS,UNITED,STATES,CA,SOLANO,38.3775,-121.9575,109,-8,"ASOS,COOP"
20001787,23130,,VNY,VAN NUYS AP,VAN NUYS AP,UNITED,STATES,CA,LOS ANGELES,34.20972,-118.48917,770,-8,"AIRWAYS,ASOS"
20002301,23277,,WVI,WATSONVILLE MUNI AP,WATSONVILLE MUNI AP,UNITED,STATES,CA,SANTA CRUZ,36.93583,-121.78861,-99999,-8,"AIRWAYS,ASOS"
20003826,24015,,AKO,AKRON WASHINGTON CO AP,AKRON WASHINGTON CO AP,UNITED,STATES,CO,WASHINGTON,40.16667,-103.21667,4663,-7,"AIRWAYS,ASOS"
20003403,23061,50130,ALS,ALAMOSA SAN LUIS AP,ALAMOSA-BERGMAN FIELD,UNITED,STATES,CO,ALAMOSA,37.4389,-105.8613,7533,-7,"ASOS,COOP,WXSVC"
20003659,93073,50373,ASE,ASPEN PITKIN CO AP,ASPEN ASOS,UNITED,STATES,CO,PITKIN,39.23,-106.87056,7720,-7,"AIRWAYS,ASOS,COOP"
30002687,3068,,CO90,BULLSEYE AUX AIRFIELD,BULLSEYE AUX AIRFIELD,UNITED,STATES,CO,EL PASO,38.76667,-104.3,6030,-7,"ASOS,MILITARY"
30000599,3026,,ITR,BURLINGTON CARSON AP,BURLINGTON CARSON AP,UNITED,STATES,CO,KIT CARSON,39.24472,-102.28417,4192,-7,"AIRWAYS,ASOS"
20003558,93037,51778,COS,COLORADO SPRINGS MUNI AP,COLORADO SPGS MUNI AP,UNITED,STATES,CO,EL PASO,38.81,-104.6884,6181,-7,"ASOS,COOP"
20003379,93069,51887,CEZ,CORTEZ MONTEZUMA COUNTY AP,CORTEZ ASOS,UNITED,STATES,CO,MONTEZUMA,37.30694,-108.62639,5910,-7,"AIRWAYS,ASOS,COOP"
20003874,24046,51931,CAG,CRAIG MOFFAT COUNTY AP,CRAIG ASOS,UNITED,STATES,CO,MOFFAT,40.49278,-107.52417,6190,-7,"AIRWAYS,ASOS,COOP"
20003721,93067,,APA,DENVER CENTENNIAL AP,DENVER CENTENNIAL AP,UNITED,STATES,CO,ARAPAHOE,39.57028,-104.84889,5883,-7,"AIRWAYS,ASOS"
10013272,3017,52211,DEN,DENVER INTL AP,DENVER INTL AP,UNITED,STATES,CO,DENVER,39.8328,-104.6575,5414,-7,"ASOS,COOP"
10001638,93005,52433,DRO,DURANGO LA PLATA CO AP,DURANGO ASOS,UNITED,STATES,CO,LA PLATA,37.14306,-107.76028,6670,-7,"AIRWAYS,ASOS,COOP"
10001668,23066,53488,GJT,GRAND JUNCTION WALKER FLD,GRAND JUNCTION REGIONAL AP,UNITED,STATES,CO,MESA,39.1342,-108.54,4858,-7,"ASOS,COOP"
20003470,23067,54720,LHX,LA JUNTA MUNI AP,LA JUNTA MUNICIPAL AP,UNITED,STATES,CO,OTERO,38.0494,-103.5122,4194,-7,"AIRWAYS,ASOS,COOP"
10001702,3013,,LAA,LAMAR MUNI AP,LAMAR MUNI AP,UNITED,STATES,CO,PROWERS,38.07,-102.68806,-99999,-7,"AIRWAYS,ASOS"
20003673,93009,,LXV,LEADVILLE LAKE CO AP,LEADVILLE LAKE CO AP,UNITED,STATES,CO,LAKE,39.22917,-106.31694,-99999,-7,ASOS
10001780,93010,,LIC,LIMON WSMO,LIMON WSMO,UNITED,STATES,CO,LINCOLN,39.18944,-103.71583,5364,-7,ASOS
30000596,94050,55485,EEO,MEEKER AIRPORT,MEEKER ASOS,UNITED,STATES,CO,RIO BLANCO,40.04417,-107.88861,6366,-7,"AIRWAYS,ASOS,COOP"
10001721,93013,55718,MTJ,MONTROSE REGIONAL AP,MONTROSE ASOS,UNITED,STATES,CO,MONTROSE,38.50583,-107.89889,5720,-7,"AIRWAYS,ASOS,COOP"
20003486,93058,56740,PUB,PUEBLO MEM AP,PUEBLO MEM AP,UNITED,STATES,CO,PUEBLO,38.2901,-104.4983,4720,-7,"ASOS,COOP,WXSVC"
10001749,3016,57034,RIL,RIFLE GARFIELD COUNTY AP,RIFLE ASOS,UNITED,STATES,CO,GARFIELD,39.52778,-107.71972,5522,-7,"AIRWAYS,ASOS,COOP"
30000600,3028,,SPD,SPRINGFIELD COMANCHE,SPRINGFIELD COMANCHE,UNITED,STATES,CO,BACA,37.28333,-102.61389,4383,-7,ASOS
20003372,23070,58434,TAD,TRINIDAD PERRY STOKES AP,TRINIDAD AP,UNITED,STATES,CO,LAS ANIMAS,37.26222,-104.33778,5741,-7,"AIRWAYS,ASOS,COOP"
20004010,94702,60806,BDR,BRIDGEPORT SIKORSKY MEM AP,BRIDGEPORT SIKORSKY AP,UNITED,STATES,CT,FAIRFIELD,41.15833,-73.12889,5,-5,"ASOS,COOP"
20004043,54734,,DXR,DANBURY MUNI AP,DANBURY MUNI AP,UNITED,STATES,CT,FAIRFIELD,41.37139,-73.48278,-99999,-5,"AIRWAYS,ASOS"
10001816,14707,,GON,GROTON NEW LONDON AP,GROTON NEW LONDON AP,UNITED,STATES,CT,NEW LONDON,41.3275,-72.04944,10,-5,ASOS
20004130,14740,63456,BDL,HARTFORD BRADLEY INTL AP,HARTFORD,UNITED,STATES,CT,HARTFORD,41.9381,-72.6825,190,-5,"ASOS,COOP"
20004086,14752,,HFD,HARTFORD BRAINARD FLD,HARTFORD BRAINARD FLD,UNITED,STATES,CT,HARTFORD,41.73611,-72.65056,19,-5,ASOS
20004059,54788,,MMK,MERIDEN MARKHAM MUNI AP,MERIDEN MARKHAM MUNI AP,UNITED,STATES,CT,NEW HAVEN,41.50972,-72.82778,-99999,-5,"AIRWAYS,ASOS"
10001826,14758,,HVN,NEW HAVEN TWEED AP,NEW HAVEN TWEED AP,UNITED,STATES,CT,NEW HAVEN,41.26389,-72.88722,3,-5,"AIRWAYS,ASOS"
10001845,54767,,IJD,WILLIMANTIC WINDHAM AP,WILLIMANTIC WINDHAM AP,UNITED,STATES,CT,WINDHAM,41.74194,-72.18361,-99999,-5,"AIRWAYS,ASOS"
20004163,13764,,GED,GEORGETOWN SUSSEX CO AP,GEORGETOWN SUSSEX CO AP,UNITED,STATES,DE,SUSSEX,38.68917,-75.35917,-99999,-5,"AIRWAYS,ASOS"
10001871,13781,79595,ILG,WILMINGTON NEW CASTLE CO AP,WILMINGTON NEW CASTLE CO AP,UNITED,STATES,DE,NEW CASTLE,39.6728,-75.6008,79,-5,"ASOS,COOP"
10001879,12832,,AAF,APALACHICOLA AP,APALACHICOLA AP,UNITED,STATES,FL,FRANKLIN,29.73333,-85.03333,19,-5,ASOS
30015510,12803,,BCT,BOCA RATON AP,BOCA RATON AP,UNITED,STATES,FL,PALM BEACH,26.37833,-80.1075,-99999,-5,ASOS
30002894,63871,,1J0,BONIFAY TRI CO AP,BONIFAY TRI CO AP,UNITED,STATES,FL,HOLMES,30.84583,-85.60139,-99999,-6,"ASOS,MILITARY"
20004455,12818,,BKV,BROOKSVILLE HERNANDO CO AP,BROOKSVILLE HERNANDO CO AP,UNITED,STATES,FL,HERNANDO,28.47361,-82.45444,-99999,-5,"AIRWAYS,ASOS"
30003150,53848,,NFJ,CHACTAW NOLF MILTON,CHACTAW NOLF MILTON,UNITED,STATES,FL,SANTA ROSA,30.50694,-86.95972,-99999,-6,ASOS
10001967,13884,81986,CEW,CRESTVIEW BOB SIKES AP,CRESTVIEW BOB SIKES AP,UNITED,STATES,FL,OKALOOSA,30.77972,-86.5225,190,-6,"AIRWAYS,ASOS,COOP"
20004525,12833,,CTY,CROSS CITY AP,CROSS CITY AP,UNITED,STATES,FL,DIXIE,29.63333,-83.10528,38,-5,ASOS
20004505,12834,82158,DAB,DAYTONA BEACH INTL AP,DAYTONA BEACH INTL AP,UNITED,STATES,FL,VOLUSIA,29.1828,-81.0483,31,-5,"ASOS,COOP"
30000607,53853,,DTS,DESTIN FT WALTON AP,DESTIN FT WALTON AP,UNITED,STATES,FL,OKALOOSA,30.4,-86.47167,-99999,-6,"AIRWAYS,ASOS"
20004282,12885,,FXE,FT LAUDERDALE EXECUTIVE AP,FT LAUDERDALE EXECUTIVE AP,UNITED,STATES,FL,BROWARD,26.19694,-80.17083,-99999,-5,"AIRWAYS,ASOS"
20004267,12849,83165,FLL,FT LAUDERDALE HOLLYWOOD AP,FT LAUDERDALE INTL AP,UNITED,STATES,FL,BROWARD,26.0719,-80.1536,11,-5,"AIRWAYS,ASOS,COOP"
10002008,12835,83186,FMY,FT MYERS PAGE FLD AP,FT MYERS PAGE FLD AP,UNITED,STATES,FL,LEE,26.585,-81.8614,15,-5,"AIRWAYS,ASOS,COOP,USHCN"
10002010,12894,,RSW,FT MYERS SW FL RGNL AP,FT MYERS SW FL RGNL AP,UNITED,STATES,FL,LEE,26.53611,-81.755,31,-5,"AIRWAYS,ASOS"
20004686,12895,,FPR,FT PIERCE ST LUCIE CO INTL AP,FT PIERCE ST LUCIE CO INTL AP,UNITED,STATES,FL,ST. LUCIE,27.49806,-80.37667,24,-5,"AIRWAYS,ASOS"
20004544,12816,83326,GNV,GAINESVILLE RGNL AP,GAINESVILLE RGNL AP,UNITED,STATES,FL,ALACHUA,29.6919,-82.2755,123,-5,"AIRWAYS,ASOS,COOP"
20004266,92809,,HWO,HOLLYWOOD NORTH PERRY AP,HOLLYWOOD NORTH PERRY AP,UNITED,STATES,FL,BROWARD,25.99889,-80.24111,-99999,-5,"AIRWAYS,ASOS"
30003151,63890,,NEN,JACKSON WHITEHOUSE NOLF,JACKSON WHITEHOUSE NOLF,UNITED,STATES,FL,DUVAL,30.35028,-81.88306,-99999,-5,ASOS
20004603,53860,84370,CRG,JACKSONVILLE CRAIG MUNI AP,JACKSONVILLE CRAIG AP,UNITED,STATES,FL,DUVAL,30.3361,-81.5147,41,-5,"AIRWAYS,ASOS,COOP"
20004635,13889,84358,JAX,JACKSONVILLE INTL AP,JACKSONVILLE INTL AP,UNITED,STATES,FL,DUVAL,30.495,-81.6936,26,-5,"ASOS,COOP"
10002101,12836,84570,EYW,KEY WEST INTL AP,KEY WEST INTL AP,UNITED,STATES,FL,MONROE,24.555,-81.75222,4,-5,"AIRSAMPLE,AIRWAYS,ASOS,COOP,USHCN"
20004483,12819,,LEE,LEESBURG MUNI AP,LEESBURG MUNI AP,UNITED,STATES,FL,LAKE,28.82083,-81.80972,-99999,-5,"AIRWAYS,ASOS"
20004208,12896,,MTH,MARATHON AP,MARATHON AP,UNITED,STATES,FL,MONROE,24.72583,-81.05167,8,-5,"AIRWAYS,ASOS"
20004673,3818,,MAI,MARIANNA MUNI AP,MARIANNA MUNI AP,UNITED,STATES,FL,JACKSON,30.83556,-85.18389,-99999,-6,"AIRWAYS,ASOS"
30015673,12838,85604,MLB,MELBOURNE INTL AP,MELBOURNE INTERNATIONAL AIRPOR,UNITED,STATES,FL,BREVARD,28.10111,-80.64389,27,-5,"ASOS,COOP"
20004250,12839,85663,MIA,MIAMI INTL AP,MIAMI INTL AP,UNITED,STATES,FL,MIAMI-DADE,25.7905,-80.3163,29,-5,"ASOS,COOP"
20004234,12888,,TMB,MIAMI KENDALL TAMIAMI EXEC AP,MIAMI KENDALL TAMIAMI EXEC AP,UNITED,STATES,FL,DADE,25.6475,-80.43306,-99999,-5,"AIRWAYS,ASOS"
20004259,12882,,OPF,MIAMI OPA LOCKA AP,MIAMI OPA LOCKA AP,UNITED,STATES,FL,DADE,25.90694,-80.28028,10,-5,"AIRWAYS,ASOS"
20004280,12897,86076,APF,NAPLES MUNI AP,NAPLES MUNICIPAL AP,UNITED,STATES,FL,COLLIER,26.1522,-81.7752,9,-5,"AIRWAYS,ASOS,COOP"
30015485,73805,,ECP,NW FLORIDA BEACHES INTL AP,NW FLORIDA BEACHES INTL AP,UNITED,STATES,FL,BAY,30.349,-85.788,57,-6,"AIRWAYS,ASOS"
20004463,12841,,ORL,ORLANDO EXECUTIVE AP,ORLANDO EXECUTIVE AP,UNITED,STATES,FL,ORANGE,28.54528,-81.33306,108,-5,"AIRWAYS,ASOS"
20004451,12815,86628,MCO,ORLANDO INTL AP,ORLANDO INTL AP,UNITED,STATES,FL,ORANGE,28.4339,-81.325,90,-5,"ASOS,COOP"
20004479,12854,,SFB,ORLANDO SANFORD AP,ORLANDO SANFORD AP,UNITED,STATES,FL,SEMINOLE,28.77972,-81.24361,-99999,-5,"AIRWAYS,ASOS"
20004594,3882,,PFN,PANAMA CITY BAY CO AP,PANAMA CITY BAY CO AP,UNITED,STATES,FL,BAY,30.21194,-85.68278,-99999,-6,"AIRWAYS,ASOS"
10002256,13899,86997,PNS,PENSACOLA RGNL AP,PENSACOLA RGNL AP,UNITED,STATES,FL,ESCAMBIA,30.47806,-87.18694,112,-6,"AIRWAYS,ASOS,COOP,USHCN"
20004570,53862,,40J,PERRY FOLEY AP,PERRY FOLEY AP,UNITED,STATES,FL,TAYLOR,30.07194,-83.57361,-99999,-5,ASOS
20004286,92805,,PMP,POMPANO BEACH AIRPARK,POMPANO BEACH AIRPARK,UNITED,STATES,FL,BROWARD,26.25,-80.10833,-99999,-5,"AIRWAYS,ASOS"
20004326,12812,,PGD,PUNTA GORDA CHARLOTTE CO AP,PUNTA GORDA CHARLOTTE CO AP,UNITED,STATES,FL,CHARLOTTE,26.91722,-81.99139,-99999,-5,"AIRWAYS,ASOS"
20004364,12871,,SRQ,SARASOTA BRADENTON AP,SARASOTA BRADENTON AP,UNITED,STATES,FL,SARASOTA,27.40139,-82.55861,-99999,-5,"AIRWAYS,ASOS"
30079544,92806,,SPG,ST PETERSBURG ALBERT WHITTED,ST PETERSBURG ALBERT WHITTED,UNITED,STATES,FL,PINELLAS,27.76472,-82.6275,-99999,-5,"AIRWAYS,ASOS"
20004392,12873,,PIE,ST PETERSBURG INTL AP,ST PETERSBURG INTL AP,UNITED,STATES,FL,PINELLAS,27.91056,-82.6875,-99999,-5,"AIRWAYS,ASOS"
10002302,93805,88758,TLH,TALLAHASSEE RGNL AP,TALLAHASSEE WSO AP,UNITED,STATES,FL,LEON,30.39306,-84.35333,55,-5,"ASOS,COOP,USHCN"
20004414,12842,88788,TPA,TAMPA INTL AP,TAMPA INTL AP,UNITED,STATES,FL,HILLSBOROUGH,27.96194,-82.5403,19,-5,"ASOS,COOP"
10002333,12843,89214,VRB,VERO BEACH INTL AP,VERO BEACH INTL AIRPORT,UNITED,STATES,FL,INDIAN RIVER,27.651,-80.4199,28,-5,"ASOS,COOP"
20004306,12844,89525,PBI,WEST PALM BEACH INTL AP,WEST PALM BCH INTL AP,UNITED,STATES,FL,PALM BEACH,26.6847,-80.0994,19,-5,"ASOS,COOP,UPPERAIR"
30014224,53847,,NDZ,WHITING FIELD NAS SOUTH,WHITING FIELD NAS SOUTH,UNITED,STATES,FL,SANTA ROSA,30.70444,-87.02306,178,-6,"ASOS,MILITARY"
20004693,12876,,GIF,WINTER HAVEN GILBERT AP,WINTER HAVEN GILBERT AP,UNITED,STATES,FL,POLK,28.06222,-81.75417,-99999,-5,"AIRWAYS,ASOS"
20004749,13869,,ABY,ALBANY SW GA RGNL AP,ALBANY SW GA RGNL AP,UNITED,STATES,GA,DOUGHERTY,31.53556,-84.19444,190,-5,ASOS
20004746,13870,90211,AMG,ALMA BACON CO AP,ALMA BACON CO AP,UNITED,STATES,GA,BACON,31.5358,-82.5067,193,-5,"AIRWAYS,ASOS,COOP"
20004943,13873,90435,AHN,ATHENS BEN EPPS AP,ATHENS BEN EPPS AP,UNITED,STATES,GA,CLARKE,33.948,-83.3275,785,-5,"AIRSAMPLE,AIRWAYS,ASOS,COOP"
20004921,3888,,FTY,ATLANTA FULTON CO AP,ATLANTA FULTON CO AP,UNITED,STATES,GA,FULTON,33.77917,-84.52139,840,-5,"AIRWAYS,ASOS"
20004906,13874,90451,ATL,ATLANTA HARTSFIELD INTL AP,ATLANTA HARTSFIELD AP,UNITED,STATES,GA,FULTON,33.6301,-84.4418,1010,-5,"ASOS,COOP"
20004932,53863,,PDK,ATLANTA PEACHTREE AP,ATLANTA PEACHTREE AP,UNITED,STATES,GA,DEKALB,33.875,-84.30222,-99999,-5,"AIRWAYS,ASOS"
20004888,3820,90495,AGS,AUGUSTA BUSH FLD AP,AUGUSTA BUSH FLD AP,UNITED,STATES,GA,RICHMOND,33.3644,-81.9633,132,-5,"ASOS,COOP"
30015526,13837,,DNL,AUGUSTA DANIEL FLD AP,AUGUSTA DANIEL FLD AP,UNITED,STATES,GA,RICHMOND,33.46694,-82.03861,-99999,-5,ASOS
20004715,13878,91345,SSI,BRUNSWICK MALCOLM MCKINNON AP,BRUNSWICK-MCKINNON AP,UNITED,STATES,GA,GLYNN,31.1522,-81.3908,16,-5,"ASOS,COOP"
30001037,53873,,VPC,CARTERSVILLE AP,CARTERSVILLE AP,UNITED,STATES,GA,BARTOW,34.12306,-84.84861,-99999,-5,ASOS
20004818,93842,92166,CSG,COLUMBUS METRO AP,COLUMBUS METO AP.,UNITED,STATES,GA,MUSCOGEE,32.5161,-84.9422,392,-5,"AIRSAMPLE,AIRWAYS,ASOS,COOP"
30000613,53838,,GVL,GAINESVILLE GILMER AP,GAINESVILLE GILMER AP,UNITED,STATES,GA,HALL,34.27194,-83.83028,-99999,-5,"AIRWAYS,ASOS"
20004834,3813,95443,MCN,MACON MIDDLE GA RGNL AP,MACON MIDDLE GA AP,UNITED,STATES,GA,BIBB,32.6847,-83.6527,343,-5,"ASOS,COOP"
10002380,53819,,FFC,PEACHTREE CITY FALCON FLD,PEACHTREE CITY FALCON FLD,UNITED,STATES,GA,FAYETTE,33.35528,-84.56694,798,-5,"AIRWAYS,ASOS,UPPERAIR"
20004984,93801,,RMG,ROME R B RUSSELL AP,ROME R B RUSSELL AP,UNITED,STATES,GA,FLOYD,34.34778,-85.16111,639,-5,"AIRWAYS,ASOS"
10002587,3822,97847,SAV,SAVANNAH INTL AP,SAVANNAH INTL AP,UNITED,STATES,GA,CHATHAM,32.13,-81.21,46,-5,"ASOS,COOP,USHCN"
20004698,93845,,VLD,VALDOSTA RGNL AP,VALDOSTA RGNL AP,UNITED,STATES,GA,LOWNDES,30.7825,-83.27667,198,-5,ASOS
20023266,21508,,BSF,BRADSHAW AAF,BRADSHAW AAF,UNITED,STATES,HI,HAWAII,19.76,-155.55361,5900,-10,ASOS
20023546,22551,,JRF,EWA KALAELOA AP,EWA KALAELOA AP,UNITED,STATES,HI,HONOLULU,21.31667,-158.06667,-99999,-10,"AIRWAYS,ASOS"
20023247,21504,511492,ITO,HILO INTL AP,HILO INTL AP 87,UNITED,STATES,HI,HAWAII,19.7191,-155.053,38,-10,"ASOS,COOP"
20023537,22521,511919,HNL,HONOLULU INTL AP,HONOLULU WSFO AP 703,UNITED,STATES,HI,HONOLULU,21.32389,-157.92944,7,-10,"ASOS,COOP"
20023442,22516,512572,OGG,KAHULUI AP,KAHULUI WSO AP 398,UNITED,STATES,HI,MAUI,20.89972,-156.42861,51,-10,"AIRWAYS,ASOS,COOP"
20023265,21510,,KOA,KAILUA KONA KE-AHOLE AP,KAILUA KONA KE-AHOLE AP,UNITED,STATES,HI,HAWAII,19.73556,-156.04889,-99999,-10,"AIRWAYS,ASOS"
20023676,22536,515580,LIH,LIHUE WSO AP 1020.1,LIHUE WSO AP 1020.1,UNITED,STATES,HI,KAUAI,21.98389,-159.34056,100,-10,"ASOS,COOP"
20023492,22534,516534,MKK,MOLOKAI AP,MOLOKAI AP 524,UNITED,STATES,HI,MAUI,21.1545,-157.0961,443,-10,"ASOS,COOP"
20007221,94989,130197,AMW,AMES MUNICIPAL AP,AMES MUNICIPAL AIRPORT,UNITED,STATES,IA,STORY,41.99056,-93.61889,955,-6,"AIRWAYS,ASOS,COOP"
20006645,14931,,BRL,BURLINGTON MUNI AP,BURLINGTON MUNI AP,UNITED,STATES,IA,DES MOINES,40.78333,-91.12528,692,-6,ASOS
20006849,14990,131314,CID,CEDAR RAPIDS MUNI AP,CEDAR RAPIDS AP,UNITED,STATES,IA,LINN,41.8833,-91.7166,868,-6,"AIRWAYS,ASOS,COOP"
30000539,94982,,DVN,DAVENPORT MUNI AP,DAVENPORT MUNI AP,UNITED,STATES,IA,SCOTT,41.61389,-90.59139,750,-6,"AIRWAYS,ASOS"
20006769,14933,132203,DSM,DES MOINES INTL AP,DES MOINES AP,UNITED,STATES,IA,POLK,41.5338,-93.653,957,-6,"ASOS,COOP"
20006945,94908,132367,DBQ,DUBUQUE RGNL AP,DUBUQUE WSO AP,UNITED,STATES,IA,DUBUQUE,42.39778,-90.70361,1056,-6,"ASOS,COOP"
20007187,94971,132725,EST,ESTHERVILLE MUNICIPAL AP,ESTHERVILLE MUNICIPAL ARPT,UNITED,STATES,IA,EMMET,43.40111,-94.74722,1317,-6,"AIRWAYS,ASOS,COOP"
10002800,14937,,IOW,IOWA CITY MUNI AP,IOWA CITY MUNI AP,UNITED,STATES,IA,JOHNSON,41.63278,-91.54306,650,-6,"AIRWAYS,ASOS"
30000341,94991,134587,LWD,LAMONI MUNICIPAL AP,LAMONI MUNI AP,UNITED,STATES,IA,DECATUR,40.6306,-93.9008,1135,-6,"AIRWAYS,ASOS,COOP"
20006907,94988,135199,MIW,MARSHALLTOWN MUNICIPAL AP,MARSHALLTOWN MUNI AP,UNITED,STATES,IA,MARSHALL,42.11056,-92.91611,974,-6,"AIRWAYS,ASOS,COOP"
20007082,14940,135235,MCW,MASON CITY MUNI AP,MASON CITY MUNI AP,UNITED,STATES,IA,CERRO GORDO,43.1544,-93.3269,1225,-6,"ASOS,COOP"
20006709,14950,136389,OTM,OTTUMWA INDUSTRIAL AP,OTTUMWA INDUSTRIAL AP,UNITED,STATES,IA,WAPELLO,41.1077,-92.4466,842,-6,"ASOS,COOP"
20006955,14943,137708,SUX,SIOUX CITY GATEWAY AP,SIOUX CITY AP,UNITED,STATES,IA,WOODBURY,42.3913,-96.3791,1095,-6,"AIRWAYS,ASOS,COOP"
20007084,14972,,SPW,SPENCER MUNI AP,SPENCER MUNI AP,UNITED,STATES,IA,CLAY,43.16444,-95.20167,-99999,-6,"AIRWAYS,ASOS"
20006987,94910,138706,ALO,WATERLOO MUNI AP,WATERLOO MUNICIPAL AP,UNITED,STATES,IA,BLACK HAWK,42.5544,-92.4011,868,-6,"AIRWAYS,ASOS,COOP,WXSVC"
20005225,24131,101022,BOI,BOISE AIR TERMINAL,BOISE AIR TERMINAL,UNITED,STATES,ID,ADA,43.5666,-116.2405,2814,-7,"ASOS,COOP"
20005103,24133,101303,BYI,BURLEY MUNI AP,BURLEY MUNI AP,UNITED,STATES,ID,CASSIA,42.5416,-113.7661,4142,-7,"ASOS,COOP"
30000529,4114,,LLJ,CHALLIS AP,CHALLIS AP,UNITED,STATES,ID,CUSTER,44.52278,-114.215,5033,-7,ASOS
20005210,24145,,IDA,IDAHO FALLS FANNING FLD,IDAHO FALLS FANNING FLD,UNITED,STATES,ID,BONNEVILLE,43.51639,-112.06722,4729,-7,"AIRWAYS,ASOS"
30000618,4110,,JER,JEROME CO AP,JEROME CO AP,UNITED,STATES,ID,JEROME,42.72667,-114.45639,-99999,-7,"AIRWAYS,ASOS"
10003027,24149,105241,LWS,LEWISTON NEZ PERCE CO AP,LEWISTON AP,UNITED,STATES,ID,NEZ PERCE,46.3747,-117.0156,1436,-8,"AIRSAMPLE,ASOS,COOP,USHCN"
30000620,4109,,P69,LOWELL THREE RIVERS,LOWELL THREE RIVERS,UNITED,STATES,ID,IDAHO,46.14417,-115.59639,1480,-8,ASOS
20005364,94182,,MYL,MCCALL AP,MCCALL AP,UNITED,STATES,ID,VALLEY,44.88889,-116.10167,5013,-7,"AIRWAYS,ASOS"
20005489,24154,,MLP,MULLAN PASS VOR/DME,MULLAN PASS VOR/DME,UNITED,STATES,ID,SHOSHONE,47.45694,-115.645,6028,-8,"AIRWAYS,ASOS"
20005151,24156,107211,PIH,POCATELLO RGNL AP,POCATELLO RGNL AP,UNITED,STATES,ID,POWER,42.9202,-112.5711,4478,-7,"ASOS,COOP"
20005549,94194,,RXE,REXBURG MADISON CO AP,REXBURG MADISON CO AP,UNITED,STATES,ID,MADISON,43.83389,-111.80444,-99999,-7,"AIRWAYS,ASOS"
30000619,4112,,SNT,STANLEY RS,STANLEY RS,UNITED,STATES,ID,CUSTER,44.17083,-114.92722,6495,-7,ASOS
20005100,94178,,TWF,TWIN FALLS SUN VLY RGNL AP,TWIN FALLS SUN VLY RGNL AP,UNITED,STATES,ID,TWIN FALLS,42.48194,-114.48694,-99999,-7,"AIRWAYS,ASOS"
10003173,3960,,CPS,CAHOKIA ST LOUIS AP,CAHOKIA ST LOUIS AP,UNITED,STATES,IL,ST. CLAIR,38.57139,-90.15722,413,-6,"AIRWAYS,ASOS"
20005582,93810,,MDH,CARBONDALE SOUTHERN IL AP,CARBONDALE SOUTHERN IL AP,UNITED,STATES,IL,JACKSON,37.77972,-89.24972,406,-6,"AIRWAYS,ASOS"
20005750,94870,,CMI,CHAMPAIGN WILLARD AP,CHAMPAIGN WILLARD AP,UNITED,STATES,IL,CHAMPAIGN,40.03972,-88.27778,-99999,-6,"AIRWAYS,ASOS"
20005918,4808,,ARR,CHICAGO AURORA MUNI AP,CHICAGO AURORA MUNI AP,UNITED,STATES,IL,KANE,41.77,-88.48139,710,-6,"AIRWAYS,ASOS"
20005916,14819,,MDW,CHICAGO MIDWAY AP,CHICAGO MIDWAY AP 3SW,UNITED,STATES,IL,COOK,41.78611,-87.75222,612,-6,"AIRWAYS,ASOS,WXSVC"
10003214,94846,111549,ORD,CHICAGO OHARE INTL AP,CHICAGO O'HARE AIRPORT,UNITED,STATES,IL,COOK,41.995,-87.9336,662,-6,"ASOS,COOP,WXSVC"
20005970,4838,,PWK,CHICAGO PALWAUKEE AP,CHICAGO PALWAUKEE AP,UNITED,STATES,IL,COOK,42.12083,-87.90472,636,-6,"AIRWAYS,ASOS"
20006000,14880,,UGN,CHICAGO WAUKEGAN RGNL AP,CHICAGO WAUKEGAN RGNL AP,UNITED,STATES,IL,LAKE,42.41667,-87.86667,-99999,-6,ASOS
20005730,3887,,DEC,DECATUR AP,DECATUR AP,UNITED,STATES,IL,MACON,39.83444,-88.86556,675,-6,"AIRWAYS,ASOS"
20005646,13809,,LWV,LAWRENCEVILLE INTL AP,LAWRENCEVILLE INTL AP,UNITED,STATES,IL,LAWRENCE,38.76417,-87.60556,429,-6,"AIRWAYS,ASOS"
20005697,53802,,MTO,MATTOON COLES CO AP,MATTOON COLES CO AP,UNITED,STATES,IL,COLES,39.47806,-88.28028,-99999,-6,"AIRWAYS,ASOS"
20005883,14923,115751,MLI,MOLINE QUAD CITY INTL AP,MOLINE WSO AP,UNITED,STATES,IL,ROCK ISLAND,41.46528,-90.52333,592,-6,"ASOS,COOP,WXSVC"
20005809,14842,116711,PIA,PEORIA GTR PEORIA AP,PEORIA INTERNATIONAL AP,UNITED,STATES,IL,PEORIA,40.6675,-89.6839,650,-6,"AIRSAMPLE,ASOS,COOP,WXSVC"
20005743,93989,117072,UIN,QUINCY RGNL AP,QUINCY RGNL AP,UNITED,STATES,IL,ADAMS,39.93694,-91.19194,769,-6,"ASOS,COOP"
20005977,94822,117382,RFD,ROCKFORD GTR ROCKFORD AP,ROCKFORD AP,UNITED,STATES,IL,WINNEBAGO,42.1927,-89.093,730,-6,"ASOS,COOP,WXSVC"
20005732,93822,118179,SPI,SPRINGFIELD CAPITAL AP,SPRINGFIELD LINCOLN AP,UNITED,STATES,IL,SANGAMON,39.8447,-89.6839,594,-6,"AIRSAMPLE,AIRWAYS,ASOS,COOP"
20005944,94892,,DPA,WEST CHICAGO DUPAGE AP,WEST CHICAGO DUPAGE AP,UNITED,STATES,IL,DUPAGE,41.91444,-88.24639,754,-6,"AIRWAYS,ASOS"
20006203,3893,,BMG,BLOOMINGTON MONROE CO AP,BLOOMINGTON MONROE CO AP,UNITED,STATES,IN,MONROE,39.13333,-86.61667,844,-5,"AIRWAYS,ASOS"
20006102,93817,122738,EVV,EVANSVILLE REGIONAL AP,EVANSVILLE REGIONAL AP,UNITED,STATES,IN,VANDERBURGH,38.0441,-87.5205,400,-6,"AIRSAMPLE,AIRWAYS,ASOS,COOP"
20006405,14827,123037,FWA,FT WAYNE INTL AP,FORT WAYNE AP,UNITED,STATES,IN,ALLEN,40.9705,-85.2063,791,-5,"AIRWAYS,ASOS,COOP"
20006449,14829,123414,GSH,GOSHEN MUNI AP,GOSHEN AP,UNITED,STATES,IN,ELKHART,41.5333,-85.7833,830,-5,"AIRWAYS,ASOS,COOP"
20006288,53842,,EYE,INDIANAPOLIS EAGLE CREEK AP,INDIANAPOLIS EAGLE CREEK AP,UNITED,STATES,IN,MARION,39.825,-86.29583,-99999,-5,"AIRWAYS,ASOS"
20006268,93819,124259,IND,INDIANAPOLIS INTL AP,INDIANAPOLIS INTL AP,UNITED,STATES,IN,MARION,39.7318,-86.2788,790,-5,"ASOS,COOP,WXSVC"
20006355,14835,,LAF,LAFAYETTE PURDUE UNIV AP,LAFAYETTE PURDUE UNIV AP,UNITED,STATES,IN,TIPPECANOE,40.41222,-86.93694,599,-5,"AIRWAYS,ASOS,WXSVC"
20006334,94895,,MIE,MUNCIE DELAWARE CO AP,MUNCIE DELAWARE CO AP,UNITED,STATES,IN,DELAWARE,40.23417,-85.39361,-99999,-5,"AIRWAYS,ASOS"
30000621,53866,,GEZ,SHELBYVILLE MUNI AP,SHELBYVILLE MUNI AP,UNITED,STATES,IN,SHELBY,39.57806,-85.80333,-99999,-5,"AIRWAYS,ASOS"
20006483,14848,128187,SBN,SOUTH BEND MICHIANA RGNL AP,SOUTH BEND AP,UNITED,STATES,IN,ST. JOSEPH,41.7072,-86.3163,773,-5,"AIRWAYS,ASOS,COOP"
20006244,3868,,HUF,TERRE HAUTE HULMAN RGNL AP,TERRE HAUTE HULMAN RGNL AP,UNITED,STATES,IN,VIGO,39.45194,-87.30889,575,-5,"AIRWAYS,ASOS"
20006447,4846,,VPZ,VALPARAISO PORTER CO MUNI AP,VALPARAISO PORTER CO MUNI AP,UNITED,STATES,IN,PORTER,41.4525,-87.00583,-99999,-6,"AIRWAYS,ASOS"
20007382,13981,,CNU,CHANUTE MARTIN JOHNSON AP,CHANUTE MARTIN JOHNSON AP,UNITED,STATES,KS,NEOSHO,37.67028,-95.48417,-99999,-6,ASOS
20007889,13984,141767,CNK,CONCORDIA MUNI AP,CONCORDIA ASOS,UNITED,STATES,KS,CLOUD,39.5514,-97.6508,1469,-6,"ASOS,COOP"
20007403,13985,142164,DDC,DODGE CITY RGNL AP,DODGE CITY RGNL AP,UNITED,STATES,KS,FORD,37.7686,-99.9678,2582,-6,"ASOS,COOP,WXSVC"
20007525,13989,142542,EMP,EMPORIA MUNI AP,EMPORIA ASOS,UNITED,STATES,KS,LYON,38.32917,-96.19472,1196,-6,"AIRWAYS,ASOS,BASIC,COOP,WXSVC"
20007755,13947,,FRI,FT RILEY MARSHALL AAF,FT RILEY MARSHALL AAF,UNITED,STATES,KS,GEARY,39.05,-96.76667,-99999,-6,ASOS
30002762,53989,,AMM,FT RILEY MULTIPLE PURPOSE RNG,FT RILEY MULTIPLE PURPOSE RNG,UNITED,STATES,KS,RILEY,39.29417,-96.92639,1264,-6,"ASOS,MILITARY"
20007442,23064,,GCK,GARDEN CITY RGNL AP,GARDEN CITY RGNL AP,UNITED,STATES,KS,FINNEY,37.92722,-100.72472,2882,-6,"AIRWAYS,ASOS"
20007848,23065,143153,GLD,GOODLAND RENNER FLD,GOODLAND RENNER FLD,UNITED,STATES,KS,SHERMAN,39.36722,-101.69333,3656,-7,"ASOS,COOP,WXSVC"
20007842,93990,,HLC,HILL CITY MUNI AP,HILL CITY MUNI AP,UNITED,STATES,KS,GRAHAM,39.37556,-99.82972,2188,-6,"AIRWAYS,ASOS"
20007474,13986,,HUT,HUTCHINSON MUNI AP,HUTCHINSON MUNI AP,UNITED,STATES,KS,RENO,38.06528,-97.86056,-99999,-6,ASOS
20007726,3997,144560,LWC,LAWRENCE MUNI AP,LAWRENCE ASOS,UNITED,STATES,KS,DOUGLAS,39.00778,-95.21167,832,-6,"AIRWAYS,ASOS,COOP"
20007790,3936,144979,MHK,MANHATTAN MUNI AP,MANHATTAN ASOS,UNITED,STATES,KS,RILEY,39.1346,-96.6788,1056,-6,"AIRWAYS,ASOS,COOP,WXSVC"
20007317,3957,145175,P28,MEDICINE LODGE,MEDICINE LODGE 1E,UNITED,STATES,KS,BARBER,37.2839,-98.5528,1535,-6,"ASOS,COOP"
20007645,93909,,IXD,OLATHE JOHNSON CO AP,OLATHE JOHNSON CO AP,UNITED,STATES,KS,JOHNSON,38.83167,-94.88972,-99999,-6,"AIRWAYS,ASOS"
20007664,3967,,OJC,OLATHE JOHNSON CO EXEC AP,OLATHE JOHNSON CO EXEC AP,UNITED,STATES,KS,JOHNSON,38.85,-94.73917,1070,-6,"AIRWAYS,ASOS"
20007324,3998,,PPF,PARSONS TRI CITY AP,PARSONS TRI CITY AP,UNITED,STATES,KS,LABETTE,37.32778,-95.50417,869,-6,"AIRWAYS,ASOS"
10004546,93997,,RSL,RUSSELL MUNI AP,RUSSELL MUNI AP,UNITED,STATES,KS,RUSSELL,38.87611,-98.80917,-99999,-6,ASOS
20007712,13920,,FOE,TOPEKA FORBES FLD,TOPEKA FORBES FLD,UNITED,STATES,KS,SHAWNEE,38.95028,-95.66389,1067,-6,"AIRWAYS,ASOS"
20007744,13996,148167,TOP,TOPEKA MUNI AP,TOPEKA ASOS,UNITED,STATES,KS,SHAWNEE,39.0725,-95.6261,876,-6,"ASOS,COOP,WXSVC"
20008017,3974,,AAO,WICHITA JABARA AP,WICHITA JABARA AP,UNITED,STATES,KS,SEDGWICK,37.74611,-97.22111,-99999,-6,ASOS
10004615,3928,148830,ICT,WICHITA MID-CONTINENT AP,WICHITA MID-CONTINENT,UNITED,STATES,KS,SEDGWICK,37.6475,-97.43,1321,-6,"ASOS,COOP,WXSVC"
20007280,13932,,WLD,WINFIELD STROTHER FLD AP,WINFIELD STROTHER FLD AP,UNITED,STATES,KS,COWLEY,37.16806,-97.03694,1150,-6,"AIRWAYS,ASOS"
20008171,93808,150909,BWG,BOWLING GREEN WARREN CO AP,BOWLING GREEN RGNL AP,UNITED,STATES,KY,WARREN,36.9647,-86.4238,528,-6,"AIRWAYS,ASOS,COOP,USHCN"
20008500,93814,151855,CVG,CINCINNATI NORTHERN KY AP,COVINGTON WSO,UNITED,STATES,KY,BOONE,39.04306,-84.67167,869,-5,"ASOS,COOP"
20008432,53841,,FFT,FRANKFORT CAPITAL CITY AP,FRANKFORT CAPITAL CITY AP,UNITED,STATES,KY,FRANKLIN,38.18472,-84.90333,-99999,-5,"AIRWAYS,ASOS"
20008325,3889,154202,JKL,JACKSON JULIAN CARROLL AP,JACKSON WSO,UNITED,STATES,KY,BREATHITT,37.59139,-83.31444,1365,-5,"ASOS,COOP"
20008412,93820,154746,LEX,LEXINGTON BLUEGRASS AP,LEXINGTON BLUEGRASS AP,UNITED,STATES,KY,FAYETTE,38.0408,-84.6058,980,-5,"ASOS,COOP,WXSVC"
20008189,3849,154898,LOZ,LONDON CORBIN AP,LONDON FAA AP,UNITED,STATES,KY,LAUREL,37.08722,-84.07694,1188,-5,"AIRWAYS,ASOS,COOP"
10004694,13810,,LOU,LOUISVILLE BOWMAN FLD,LOUISVILLE BOWMAN FLD,UNITED,STATES,KY,JEFFERSON,38.22806,-85.66361,540,-5,"AIRWAYS,ASOS"
10004692,93821,154954,SDF,LOUISVILLE INTL AP,LOUISVILLE INTL AP,UNITED,STATES,KY,JEFFERSON,38.1811,-85.7391,488,-5,"ASOS,COOP,WXSVC"
20008200,3816,156110,PAH,PADUCAH BARKLEY RGNL AP,PADUCAH BARKLEY AP,UNITED,STATES,KY,MCCRACKEN,37.0563,-88.7744,413,-6,"AIRSAMPLE,ASOS,COOP,WXSVC"
20008917,93915,,AEX,ALEXANDRIA INTL AP,ALEXANDRIA INTL AP,UNITED,STATES,LA,RAPIDES,31.33472,-92.55861,84,-6,"AIRWAYS,ASOS"
20008806,13970,160549,BTR,BATON ROUGE RYAN AP,BATON ROUGE METRO AP,UNITED,STATES,LA,EAST BATON ROUGE,30.5372,-91.1469,64,-6,"ASOS,COOP,USHCN"
20008633,12884,161157,BVE,BOOTHVILLE ASOS,BOOTHVILLE ASOS,UNITED,STATES,LA,PLAQUEMINES,29.333,-89.4075,3,-6,"ASOS,COOP"
30015487,63903,,L16,FT POLK - SELF STRIP,FT POLK - SELF STRIP,UNITED,STATES,LA,VERNON,31.1136,-92.9656,374,-6,"ASOS,MILITARY"
30002761,53988,,BKB,FT POLK FULLERTON LNDG STRIP,FT POLK FULLERTON LNDG STRIP,UNITED,STATES,LA,VERNON,31.15,-92.96667,310,-6,"ASOS,MILITARY"
20008742,13976,165026,LFT,LAFAYETTE RGNL AP,LAFAYETTE FCWOS,UNITED,STATES,LA,LAFAYETTE,30.205,-91.9875,38,-6,"AIRWAYS,ASOS,COOP,USHCN"
20008735,3937,165078,LCH,LAKE CHARLES RGNL AP,LAKE CHARLES AP,UNITED,STATES,LA,CALCASIEU,30.12472,-93.22833,9,-6,"ASOS,COOP,UPPERAIR"
20009020,13942,166303,MLU,MONROE REGIONAL AP,MONROE REGIONAL AP,UNITED,STATES,LA,OUACHITA,32.5155,-92.0405,79,-6,"ASOS,COOP"
20008717,53915,166657,ARA,NEW IBERIA ACA,NEW IBERIA AP ACADIANA RGNL,UNITED,STATES,LA,IBERIA,30.0375,-91.88389,24,-6,"AIRWAYS,ASOS,COOP"
20008704,12916,166660,MSY,NEW ORLEANS INTL AP,NEW ORLEANS AP,UNITED,STATES,LA,JEFFERSON,29.9933,-90.2511,4,-6,"ASOS,COOP"
20008710,53917,166667,NEW,NEW ORLEANS LAKEFRONT AP,NEW ORLEANS LKFRNT AP,UNITED,STATES,LA,ORLEANS,30.0494,-90.0288,9,-6,"AIRWAYS,ASOS,COOP"
20008929,3949,,AQV,PEASON RIDGE RANGE,PEASON RIDGE RANGE,UNITED,STATES,LA,SABINE,31.4,-93.28333,-99999,-6,ASOS
20008632,12968,,P92,SALT POINT,SALT POINT,UNITED,STATES,LA,ST. MARY,29.56222,-91.52556,-99999,-6,ASOS
20009034,53905,168438,DTN,SHREVEPORT DWTN AP,SHREVEPORT DWTN AP,UNITED,STATES,LA,CADDO,32.54278,-93.745,179,-6,"AIRWAYS,ASOS,COOP"
20009018,13957,168440,SHV,SHREVEPORT RGNL AP,SHREVEPORT AP,UNITED,STATES,LA,CADDO,32.4472,-93.8244,254,-6,"AIRSAMPLE,ASOS,COOP"
30000514,53865,168543,ASD,SLIDELL AP,SLIDELL AP,UNITED,STATES,LA,ST. TAMMANY,30.34333,-89.82222,27,-6,"ASOS,COOP"
30000674,3996,168926,TVR,TALLULAH VICKSBURG AP,TALLULAH VICKSBURG RGN,UNITED,STATES,LA,MADISON,32.35,-91.02778,86,-6,"AIRWAYS,ASOS,COOP"
30000515,92807,,7LS1,VENICE PHI HELIPORT,VENICE PHI HELIPORT,UNITED,STATES,LA,PLAQUEMINES,29.26194,-89.36361,-99999,-6,"AIRWAYS,ASOS"
20009325,14702,,BED,BEDFORD HANSCOM FLD,BEDFORD HANSCOM FLD,UNITED,STATES,MA,MIDDLESEX,42.47,-71.28944,-99999,-5,"AIRWAYS,ASOS"
20009363,54733,,BVY,BEVERLY MUNI AP,BEVERLY MUNI AP,UNITED,STATES,MA,ESSEX,42.58417,-70.9175,-99999,-5,"AIRWAYS,ASOS"
20009288,14739,190770,BOS,BOSTON LOGAN INTL AP,BOSTON,UNITED,STATES,MA,SUFFOLK,42.3606,-71.0106,12,-5,"ASOS,COOP"
10004955,94624,,CQX,CHATHAM MUNI AP,CHATHAM MUNI AP,UNITED,STATES,MA,BARNSTABLE,41.6875,-69.99333,-99999,-5,"AIRWAYS,ASOS"
20009354,4780,,FIT,FITCHBURG MUNI AP,FITCHBURG MUNI AP,UNITED,STATES,MA,WORCESTER,42.55194,-71.75583,-99999,-5,"AIRWAYS,ASOS"
20009181,94720,,HYA,HYANNIS BARNSTABLE MUNI AP,HYANNIS BARNSTABLE MUNI AP,UNITED,STATES,MA,BARNSTABLE,41.66861,-70.28,-99999,-5,"AIRWAYS,ASOS"
20009392,94723,,LWM,LAWRENCE MUNI AP,LAWRENCE MUNI AP,UNITED,STATES,MA,ESSEX,42.71722,-71.12389,-99999,-5,"AIRWAYS,ASOS"
20009157,14756,,ACK,NANTUCKET MEM AP,NANTUCKET MEM AP,UNITED,STATES,MA,NANTUCKET,41.25306,-70.06083,-99999,-5,"AIRWAYS,ASOS"
20009185,94726,,EWB,NEW BEDFORD MUNI AP,NEW BEDFORD MUNI AP,UNITED,STATES,MA,BRISTOL,41.67639,-70.95833,-99999,-5,"AIRWAYS,ASOS"
10004987,54768,195430,AQW,NORTH ADAMS HARRIMAN AP,NORTH ADAMS HARRIMAN AP,UNITED,STATES,MA,BERKSHIRE,42.7,-73.16667,655,-5,"AIRWAYS,ASOS,COOP"
20009239,54704,,OWD,NORWOOD MEM AP,NORWOOD MEM AP,UNITED,STATES,MA,NORFOLK,42.19083,-71.17361,50,-5,"AIRWAYS,ASOS"
10004992,54756,,ORE,ORANGE MUNI AP,ORANGE MUNI AP,UNITED,STATES,MA,FRANKLIN,42.57,-72.29111,-99999,-5,"AIRWAYS,ASOS"
20009319,14763,,PSF,PITTSFIELD MUNI AP,PITTSFIELD MUNI AP,UNITED,STATES,MA,BERKSHIRE,42.42722,-73.28917,-99999,-5,"AIRWAYS,ASOS"
20009418,54769,,PYM,PLYMOUTH MUNI AP,PLYMOUTH MUNI AP,UNITED,STATES,MA,PLYMOUTH,41.90972,-70.72944,-99999,-5,"AIRWAYS,ASOS"
30000647,54777,,TAN,TAUNTON MUNI AP,TAUNTON MUNI AP,UNITED,STATES,MA,BRISTOL,41.87556,-71.02111,-99999,-5,"AIRWAYS,ASOS"
20009166,94724,,MVY,VINEYARD HAVEN AP,VINEYARD HAVEN AP,UNITED,STATES,MA,DUKES,41.39306,-70.615,-99999,-5,"AIRWAYS,ASOS"
20009246,14775,,BAF,WESTFIELD BARNES MUNI AP,WESTFIELD BARNES MUNI AP,UNITED,STATES,MA,HAMPDEN,42.15778,-72.71611,-99999,-5,"AIRWAYS,ASOS"
20009269,94746,199923,ORH,WORCESTER RGNL AP,WORCESTER,UNITED,STATES,MA,WORCESTER,42.2706,-71.8731,1000,-5,"ASOS,COOP"
20009551,93721,180465,BWI,BALTIMORE WASH INTL AP,BALTIMORE WASH INTL AP,UNITED,STATES,MD,ANNE ARUNDEL,39.1666,-76.6833,156,-5,"ASOS,COOP"
20009660,93706,,HGR,HAGERSTOWN WASHINGTON CO AP,HAGERSTOWN WASHINGTON CO AP,UNITED,STATES,MD,WASHINGTON,39.70778,-77.72972,698,-5,"AIRWAYS,ASOS"
30000697,93784,185718,DMH,MD SCI CTR BALTIMORE,MARYLAND SCIENCE CENTER,UNITED,STATES,MD,BALTIMORE (CITY),39.2814,-76.6089,20,-5,"ASOS,COOP,USHCN"
30000851,93786,,OXB,OCEAN CITY MUNI AP,OCEAN CITY MUNI AP,UNITED,STATES,MD,WORCESTER,38.30833,-75.12389,-99999,-5,"AIRWAYS,ASOS"
20009433,93720,188005,SBY,SALISBURY WICOMICO RGNL AP,SALISBURY FAA AP,UNITED,STATES,MD,WICOMICO,38.34056,-75.51028,48,-5,"AIRWAYS,ASOS,COOP"
20009756,14605,170275,AUG,AUGUSTA STATE AP,AUGUSTA STATE AIRPORT,UNITED,STATES,ME,KENNEBEC,44.3155,-69.7972,351,-5,"ASOS,COOP"
20009796,14606,170355,BGR,BANGOR INTL AP,BANGOR AP,UNITED,STATES,ME,PENOBSCOT,44.7978,-68.8185,148,-5,"AIRWAYS,ASOS,COOP"
20009875,14607,171175,CAR,CARIBOU MUNI AP,CARIBOU WFO,UNITED,STATES,ME,AROOSTOOK,46.8705,-68.0173,624,-5,"ASOS,COOP"
10005202,4836,,FVE,FRENCHVILLE AROOSTOOK AP,FRENCHVILLE AROOSTOOK AP,UNITED,STATES,ME,AROOSTOOK,47.28556,-68.31333,-99999,-5,"AIRWAYS,ASOS"
30000651,54772,,IZG,FRYEBURG E SLOPES AP,FRYEBURG E SLOPES AP,UNITED,STATES,ME,OXFORD,43.99056,-70.9475,445,-5,"AIRWAYS,ASOS"
20009841,94626,,GNR,GREENVILLE MAINE FORESTRY SVC,GREENVILLE MAINE FORESTRY SVC,UNITED,STATES,ME,PISCATAQUIS,45.46222,-69.59528,-99999,-5,ASOS
20009858,14609,173892,HUL,HOULTON INTL AP,HOULTON AP,UNITED,STATES,ME,AROOSTOOK,46.1236,-67.7928,476,-5,"AIRWAYS,ASOS,COOP"
20009850,14610,175311,MLT,MILLINOCKET MUNI AP,MILLINOCKET MUNI AP,UNITED,STATES,ME,PENOBSCOT,45.6477,-68.6925,406,-5,"AIRWAYS,ASOS"
20009702,14764,176905,PWM,PORTLAND INTL JETPORT,PORTLAND JETPORT,UNITED,STATES,ME,CUMBERLAND,43.6497,-70.3002,45,-5,"ASOS,COOP,USHCN"
10005272,94623,,IWI,WISCASSET AP,WISCASSET AP,UNITED,STATES,ME,LINCOLN,43.96361,-69.71167,-99999,-5,"AIRWAYS,ASOS"
30000654,4847,,ADG,ADRIAN LENAWEE CO AP,ADRIAN LENAWEE CO AP,UNITED,STATES,MI,LENAWEE,41.86778,-84.07944,796,-5,"AIRWAYS,ASOS"
20010361,94849,200164,APN,ALPENA CO RGNL AP,ALPENA CO RGNL AP,UNITED,STATES,MI,ALPENA,45.0716,-83.5644,684,-5,"ASOS,COOP"
20009974,94889,,ARB,ANN ARBOR MUNI AP,ANN ARBOR MUNI AP,UNITED,STATES,MI,WASHTENAW,42.22278,-83.74444,-99999,-5,"AIRWAYS,ASOS"
20010006,14815,,BTL,BATTLE CREEK KELLOGG AP,BATTLE CREEK KELLOGG AP,UNITED,STATES,MI,CALHOUN,42.3075,-85.25111,928,-5,"AIRWAYS,ASOS"
30073837,94871,200711,BEH,BENTON HARBOR AIRPORT ASOS,BENTON HARBOR AIRPORT ASOS,UNITED,STATES,MI,BERRIEN,42.1256,-86.4284,643,-5,"ASOS,COOP"
20010547,94899,,P59,COPPER HARBOR,COPPER HARBOR,UNITED,STATES,MI,KEWEENAW,47.46667,-87.88333,626,-5,ASOS
10005352,14822,,DET,DETROIT CITY AP,DETROIT CITY AP,UNITED,STATES,MI,WAYNE,42.40917,-83.01,-99999,-5,ASOS
20009972,94847,202103,DTW,DETROIT METRO AP,DETROIT METRO AIRPORT,UNITED,STATES,MI,WAYNE,42.2313,-83.3308,631,-5,"ASOS,COOP,WXSVC"
20009973,14853,,YIP,DETROIT WILLOW RUN AP,DETROIT WILLOW RUN AP,UNITED,STATES,MI,WAYNE,42.23333,-83.53333,777,-5,"AIRWAYS,ASOS"
20010125,14826,202846,FNT,FLINT BISHOP INTL AP,FLINT FCWOS,UNITED,STATES,MI,GENESEE,42.9666,-83.7494,770,-5,"ASOS,COOP,WXSVC"
20010359,4854,,GLR,GAYLORD OTSEGO CO AP,GAYLORD OTSEGO CO AP,UNITED,STATES,MI,OTSEGO,45.01333,-84.70139,1335,-5,"AIRWAYS,ASOS"
20010114,94860,203333,GRR,GRAND RAPIDS INTL AP,GERALD R FORD INTL AP,UNITED,STATES,MI,KENT,42.8825,-85.52389,803,-5,"ASOS,COOP,WXSVC"
20010533,14858,,CMX,HANCOCK HOUGHTON CO AP,HANCOCK HOUGHTON CO AP,UNITED,STATES,MI,HOUGHTON,47.16861,-88.48889,-99999,-5,ASOS
20010100,4839,,BIV,HOLLAND TULIP CITY AP,HOLLAND TULIP CITY AP,UNITED,STATES,MI,ALLEGAN,42.74611,-86.09667,-99999,-5,"AIRWAYS,ASOS"
20010293,94814,203936,HTL,HOUGHTON LK ROSCOMMON AP,HOUGHTON ROSCOMMON AP,UNITED,STATES,MI,ROSCOMMON,44.3591,-84.6738,1151,-5,"ASOS,COOP,WXSVC"
20010418,94893,,IMT,IRON MTN FORD AP,IRON MTN FORD AP,UNITED,STATES,MI,DICKINSON,45.81833,-88.11444,-99999,-6,"AIRWAYS,ASOS"
10005448,14833,204150,JXN,JACKSON REYNOLDS FLD,JACKSON COUNTY AP,UNITED,STATES,MI,JACKSON,42.2667,-84.4667,998,-5,"ASOS,COOP"
20009991,94815,,AZO,KALAMAZOO BATTLE CK INTL AP,KALAMAZOO BATTLE CK INTL AP,UNITED,STATES,MI,KALAMAZOO,42.23472,-85.55194,868,-5,"AIRWAYS,ASOS,WXSVC"
10005464,14836,204641,LAN,LANSING CAPITAL CITY AP,LANSING CAPITAL CY AP,UNITED,STATES,MI,CLINTON,42.78028,-84.57889,841,-5,"ASOS,COOP,WXSVC"
30000669,4856,,P75,MANISTIQUE,MANISTIQUE,UNITED,STATES,MI,SCHOOLCRAFT,45.95,-86.22972,584,-5,ASOS
10005518,14840,205712,MKG,MUSKEGON CO AP,MUSKEGON CO AP,UNITED,STATES,MI,MUSKEGON,43.17111,-86.23667,625,-5,"ASOS,COOP,WXSVC"
20010393,14841,206438,PLN,PELLSTON RGNL AP,PELLSTON RGNL AP,UNITED,STATES,MI,EMMET,45.5644,-84.7927,705,-5,"AIRWAYS,ASOS,COOP"
20010074,94817,,PTK,PONTIAC OAKLAND CO INTL AP,PONTIAC OAKLAND CO INTL AP,UNITED,STATES,MI,OAKLAND,42.665,-83.41806,976,-5,"AIRWAYS,ASOS"
20010262,94898,,P58,PORT HOPE,PORT HOPE,UNITED,STATES,MI,HURON,44.02194,-82.79306,590,-5,ASOS
10005573,14845,,MBS,SAGINAW MBS INTL AP,SAGINAW MBS INTL AP,UNITED,STATES,MI,SAGINAW,43.53306,-84.07972,660,-5,ASOS
20010476,14847,207366,ANJ,SAULT STE MARIE SANDERSON FLD,SAULT STE MARIE SNDRSN,UNITED,STATES,MI,CHIPPEWA,46.4794,-84.3572,722,-5,"ASOS,COOP,WXSVC"
20010326,14850,208251,TVC,TRAVERSE CITY CHERRY CPTL AP,TRAVERSE CITY FAA AP,UNITED,STATES,MI,GRAND TRAVERSE,44.74083,-85.5825,618,-5,"AIRWAYS,ASOS,COOP"
20010842,14910,210112,AXN,ALEXANDRIA MUNI AP,ALEXANDRIA CHANDLER FLD,UNITED,STATES,MN,DOUGLAS,45.8679,-95.3941,1416,-6,"AIRWAYS,ASOS,COOP"
20011029,94961,,BDE,BAUDETTE INTL AP,BAUDETTE INTL AP,UNITED,STATES,MN,LAKE OF THE WOODS,48.71667,-94.6,1082,-6,"AIRWAYS,ASOS"
20010867,94938,,BRD,BRAINERD CROW WING CO AP,BRAINERD CROW WING CO AP,UNITED,STATES,MN,CROW WING,46.40472,-94.13083,1221,-6,"AIRWAYS,ASOS"
20010891,14913,212248,DLH,DULUTH INTL AP,DULUTH INTL AP,UNITED,STATES,MN,ST. LOUIS,46.8369,-92.1833,1433,-6,"AIRWAYS,ASOS,COOP,WXSVC"
30000671,94992,,GNA,GRAND MARAIS,GRAND MARAIS,UNITED,STATES,MN,COOK,47.74722,-90.34444,610,-6,ASOS
20010936,94931,,HIB,HIBBING CHISHOLM HIBBING AP,HIBBING CHISHOLM HIBBING AP,UNITED,STATES,MN,ST. LOUIS,47.38639,-92.83889,-99999,-6,ASOS
20011019,14918,214026,INL,INTL FALLS INTL AP,INTERNATIONAL FALLS AP,UNITED,STATES,MN,KOOCHICHING,48.5614,-93.3981,1183,-6,"ASOS,COOP,WXSVC"
20010769,14922,215435,MSP,MINNEAPOLIS/ST PAUL AP,MINNEAPOLIS/ST PAUL AP,UNITED,STATES,MN,HENNEPIN,44.8831,-93.2289,872,-6,"ASOS,COOP,USHCN,WXSVC"
20010803,94960,215441,MIC,MPLS CRYSTAL AP,MPLS CRYSTAL AP,UNITED,STATES,MN,HENNEPIN,45.06194,-93.35083,861,-6,"AIRWAYS,ASOS,COOP"
30015135,94963,215443,FCM,MPLS FLYING CLOUD AP,MPLS FLYING CLOUD AP,UNITED,STATES,MN,HENNEPIN,44.8321,-93.4705,907,-6,"ASOS,COOP"
20011055,94967,,PKD,PARK RAPIDS MUNI AP,PARK RAPIDS MUNI AP,UNITED,STATES,MN,HUBBARD,46.90056,-95.06778,1434,-6,"AIRWAYS,ASOS"
30015054,14992,216841,RWF,REDWOOD FALLS MUNI AP,REDWOOD FALLS MUNI AP,UNITED,STATES,MN,REDWOOD,44.54833,-95.08028,1021,-6,"ASOS,COOP"
20010677,14925,217004,RST,ROCHESTER INTL AP,ROCHESTER INTL AP,UNITED,STATES,MN,OLMSTED,43.9041,-92.4916,1304,-6,"ASOS,COOP,WXSVC"
20010827,14926,217294,STC,ST CLOUD RGNL AP,ST CLOUD MUNI AP,UNITED,STATES,MN,SHERBURNE,45.5433,-94.0513,1009,-6,"AIRWAYS,ASOS,COOP,WXSVC"
30015073,14927,217370,STP,ST PAUL DOWNTOWN AP,ST PAUL DOWNTOWN AP,UNITED,STATES,MN,RAMSEY,44.93194,-93.05556,700,-6,"ASOS,COOP"
20011677,3935,231289,CGI,CAPE GIRARDEAU MUNI AP,CAPE GIRARDEAU FAA AP,UNITED,STATES,MO,SCOTT,37.2252,-89.5705,336,-6,"AIRWAYS,ASOS,COOP,WXSVC"
30000673,53916,,CDJ,CHILLICOTHE AGRI-SCI,CHILLICOTHE AGRI-SCI,UNITED,STATES,MO,LIVINGSTON,39.82333,-93.57917,769,-6,ASOS
20011893,3945,231791,COU,COLUMBIA RGNL AP,COLUMBIA RGNL AP,UNITED,STATES,MO,BOONE,38.8169,-92.2183,893,-6,"AIRWAYS,ASOS,COOP"
20011862,3963,,JEF,JEFFERSON CITY MEM AP,JEFFERSON CITY MEM AP,UNITED,STATES,MO,CALLAWAY,38.59111,-92.15583,573,-6,"AIRWAYS,ASOS"
20011676,13987,234315,JLN,JOPLIN REGIONAL  AIRPORT,JOPLIN REGIONAL  AIRPORT,UNITED,STATES,MO,JASPER,37.1466,-94.5022,980,-6,"ASOS,COOP"
20011951,13988,234359,MKC,KANSAS CITY DOWNTOWN AP,KANSAS CY DOWNTOWN AP,UNITED,STATES,MO,CLAY,39.1208,-94.5969,742,-6,"AIRWAYS,ASOS,COOP"
20011970,3947,234358,MCI,KANSAS CITY INTL AP,KANSAS CITY INTL AP,UNITED,STATES,MO,PLATTE,39.2972,-94.7306,1005,-6,"AIRWAYS,ASOS,COOP"
20011901,3929,,GVW,KANSAS CITY R GEBAUR AP,KANSAS CITY R GEBAUR AP,UNITED,STATES,MO,JACKSON,38.84389,-94.56028,1056,-6,"AIRWAYS,ASOS"
20012057,14938,,IRK,KIRKSVILLE RGNL AP,KIRKSVILLE RGNL AP,UNITED,STATES,MO,ADAIR,40.09722,-92.54333,-99999,-6,ASOS
30001303,53879,,LXT,LEES SUMMIT MUNI AP,LEES SUMMIT MUNI AP,UNITED,STATES,MO,JACKSON,38.95972,-94.37139,997,-6,"AIRWAYS,ASOS"
20011602,3975,,POF,POPLAR BLUFF MUNI AP,POPLAR BLUFF MUNI AP,UNITED,STATES,MO,BUTLER,36.7725,-90.32472,327,-6,"AIRWAYS,ASOS"
20011876,3994,,DMO,SEDALIA MEM AP,SEDALIA MEM AP,UNITED,STATES,MO,PETTIS,38.70417,-93.18333,900,-6,"AIRWAYS,ASOS"
10006338,13995,237976,SGF,SPRINGFIELD RGNL AP,SPRINGFIELD WSO AP,UNITED,STATES,MO,GREENE,37.2397,-93.3897,1259,-6,"ASOS,COOP,WXSVC"
30000672,53904,,SET,ST CHARLES CO AP,ST CHARLES CO AP,UNITED,STATES,MO,ST. CHARLES,38.92861,-90.42806,-99999,-6,"AIRWAYS,ASOS"
10006313,13993,237435,STJ,ST JOSEPH ROSECRANS AP,ST JOSEPH ROSECRANS MEM,UNITED,STATES,MO,BUCHANAN,39.7736,-94.9233,818,-6,"AIRWAYS,ASOS,COOP"
20011882,13994,237455,STL,ST LOUIS LAMBERT INTL AP,ST LOUIS LAMBERT INTL AIRPORT,UNITED,STATES,MO,ST. LOUIS,38.7525,-90.3736,531,-6,"ASOS,COOP,WXSVC"
20011868,3966,,SUS,ST LOUIS SPRT OF S L AP,ST LOUIS SPRT OF S L AP,UNITED,STATES,MO,ST. LOUIS,38.65722,-90.65583,462,-6,"AIRWAYS,ASOS"
20011793,13997,238614,VIH,VICHY ROLLA NATIONAL AP,VICHY ROLLA NATIONAL AP,UNITED,STATES,MO,MARIES,38.13111,-91.76833,1127,-6,"ASOS,COOP"
20012132,53901,,UNO,WEST PLAINS MUNI AP,WEST PLAINS MUNI AP,UNITED,STATES,MO,HOWELL,36.87806,-91.9025,1223,-6,"AIRWAYS,ASOS"
20011366,13939,223608,GLH,GREENVILLE ASOS,GREENVILLE ASOS,UNITED,STATES,MS,WASHINGTON,33.4825,-90.98528,128,-6,"ASOS,COOP"
20011374,13978,223627,GWO,GREENWOOD LEFLORE AP,GREENWOOD LEFLORE AP,UNITED,STATES,MS,CARROLL,33.4963,-90.0866,133,-6,"AIRWAYS,ASOS,COOP"
30001692,93874,223666,GPT,GULFPORT - BILOXI AP,GULFPORT - BILOXI AP,UNITED,STATES,MS,HARRISON,30.4119,-89.0808,42,-6,"AIRWAYS,ASOS,COOP"
20011170,13833,223895,HBG,HATTIESBURG CHAIN MUNI AP,HATTIESBURG CHAIN AP,UNITED,STATES,MS,FORREST,31.28194,-89.25306,151,-6,"ASOS,COOP"
20011256,13927,224469,HKS,JACKSON HAWKINS FLD,JACKSON HAWKINS FLD AP,UNITED,STATES,MS,HINDS,32.33667,-90.22139,342,-6,"ASOS,COOP"
10006460,3940,224472,JAN,JACKSON INTL AP,JACKSON INTL AP,UNITED,STATES,MS,RANKIN,32.3205,-90.0777,330,-6,"ASOS,COOP,UPPERAIR"
20011172,93919,225614,MCB,MCCOMB/PIKE CO/JOHN E LEWIS AP,MCCOMB AP,UNITED,STATES,MS,PIKE,31.1827,-90.4708,413,-6,"AIRWAYS,ASOS,COOP"
30014225,53849,,NJW,MERIDAN JOE WILLIAMS NOLF,MERIDAN JOE WILLIAMS NOLF,UNITED,STATES,MS,LAUDERDALE,32.8,-88.83333,540,-6,"ASOS,UNKNOWN"
20011247,13865,225776,MEI,MERIDIAN KEY FLD,MERIDIAN AP,UNITED,STATES,MS,LAUDERDALE,32.3347,-88.7442,294,-6,"ASOS,COOP"
20011123,53858,226714,PQL,PASCAGOULA LOTT INTL AP,PASCSGOULA AP,UNITED,STATES,MS,JACKSON,30.46361,-88.53194,18,-6,"AIRWAYS,ASOS"
20011443,93862,229003,TUP,TUPELO RGNL AP,TUPELO RGNL AP,UNITED,STATES,MS,LEE,34.2622,-88.7713,361,-6,"AIRSAMPLE,ASOS,COOP"
30015679,94055,240413,BHK,BAKER MUNI AP,BAKER MUNICIPAL AIRPORT,UNITED,STATES,MT,FALLON,46.35833,-104.25,2971,-7,"ASOS,COOP"
20012302,24033,240807,BIL,BILLINGS LOGAN INTL AP,BILLINGS INTL AP,UNITED,STATES,MT,YELLOWSTONE,45.8069,-108.5422,3581,-7,"ASOS,COOP"
20012295,24132,240622,BZN,BOZEMAN GALLATIN FLD,BOZEMAN GALLATIN FLD,UNITED,STATES,MT,GALLATIN,45.788,-111.1608,4427,-7,"AIRWAYS,ASOS,COOP"
20012338,24135,241318,BTM,BUTTE BERT MOONEY AP,BUTTE BERT MOONEY AP,UNITED,STATES,MT,SILVER BOW,45.9647,-112.5006,5506,-7,"ASOS,COOP"
20012805,24137,242173,CTB,CUT BANK MUNI AP,CUT BANK AP,UNITED,STATES,MT,GLACIER,48.6033,-112.3752,3838,-7,"ASOS,COOP,USHCN"
20012210,24138,242404,DLN,DILLON AP,DILLON AIRPORT,UNITED,STATES,MT,BEAVERHEAD,45.2575,-112.5544,5200,-7,"AIRWAYS,ASOS,COOP"
20012717,94008,243558,GGW,GLASGOW INTL AP,GLASGOW INTL AP,UNITED,STATES,MT,VALLEY,48.2138,-106.6214,2285,-7,"ASOS,COOP,USHCN"
20012598,24143,243751,GTF,GREAT FALLS INTL AP,GREAT FALLS AP,UNITED,STATES,MT,CASCADE,47.4733,-111.3822,3664,-7,"ASOS,COOP,USHCN"
20012790,94012,243996,HVR,HAVRE CITY CO AP,HAVRE AP ASOS,UNITED,STATES,MT,HILL,48.5428,-109.7633,2585,-7,"ASOS,COOP"
20012444,24144,244055,HLN,HELENA RGNL AP,HELENA AP ASOS,UNITED,STATES,MT,LEWIS AND CLARK,46.6056,-111.9636,3828,-7,"ASOS,COOP,USHCN"
20012570,94051,,JDN,JORDAN AP,JORDAN AP,UNITED,STATES,MT,GARFIELD,47.32583,-106.9475,-99999,-7,"AIRWAYS,ASOS"
20012742,24146,244558,GPI,KALISPELL GLACIER AP,KALISPELL GLACIER AP,UNITED,STATES,MT,FLATHEAD,48.3042,-114.2636,2957,-7,"ASOS,COOP,USHCN"
20012534,24036,244985,LWT,LEWISTOWN MUNI AP,LEWISTOWN AP,UNITED,STATES,MT,FERGUS,47.0492,-109.4578,4145,-7,"AIRWAYS,ASOS,COOP"
20012275,24150,245086,LVM,LIVINGSTON MISSION FLD,LIVINGSTON AP,UNITED,STATES,MT,PARK,45.6983,-110.4408,4643,-7,"ASOS,COOP"
20012408,24037,245690,MLS,MILES CITY F WILEY FLD,MILES CITY AP,UNITED,STATES,MT,CUSTER,46.4266,-105.8825,2624,-7,"ASOS,COOP,USHCN"
20012503,24153,245745,MSO,MISSOULA INTL AP,MISSOULA INTL AP,UNITED,STATES,MT,MISSOULA,46.9208,-114.0925,3192,-7,"ASOS,COOP"
20012697,94017,,OLF,WOLF POINT INTL AP,WOLF POINT INTL AP,UNITED,STATES,MT,ROOSEVELT,48.09444,-105.57444,-99999,-7,"AIRWAYS,ASOS"
20013756,3812,310300,AVL,ASHEVILLE RGNL AP,ASHEVILLE AP,UNITED,STATES,NC,BUNCOMBE,35.43194,-82.5375,2117,-5,"ASOS,COOP,WXSVC"
20013586,93765,,MRH,BEAUFORT MICHAEL J SMITH FLD,BEAUFORT MICHAEL J SMITH FLD,UNITED,STATES,NC,CARTERET,34.73361,-76.66056,-99999,-5,ASOS
30000679,93783,,BUY,BURLINGTON ALAMANCE AP,BURLINGTON ALAMANCE AP,UNITED,STATES,NC,ALAMANCE,36.04667,-79.47694,-99999,-5,"AIRWAYS,ASOS"
20013691,93729,311458,HSE,CAPE HATTERAS AP,CAPE HATTERAS AP,UNITED,STATES,NC,DARE,35.2326,-75.6219,11,-5,"ASOS,COOP,USHCN"
30000798,93785,,IGX,CHAPEL HILL WILLIAMS AP,CHAPEL HILL WILLIAMS AP,UNITED,STATES,NC,ORANGE,35.93333,-79.06417,-99999,-5,"AIRWAYS,ASOS"
20013675,13881,311690,CLT,CHARLOTTE DOUGLAS AP,CHARLOTTE DOUGLAS AP,UNITED,STATES,NC,MECKLENBURG,35.2236,-80.9552,728,-5,"ASOS,COOP"
30014230,93776,,,CHERRY POINT MCAS ASOS 2,CHERRY POINT MCAS ASOS 2,UNITED,STATES,NC,CARTERET,34.88333,-76.86667,30,-5,ASOS
20013992,13786,,ECG,ELIZABETH CITY CGAS,ELIZABETH CITY CGAS,UNITED,STATES,NC,PASQUOTANK,36.26056,-76.175,-99999,-5,"AIRWAYS,ASOS"
20013649,13714,,POB,FAYETTEVILLE POPE AFB,FAYETTEVILLE POPE AFB,UNITED,STATES,NC,CUMBERLAND,35.17389,-79.00889,218,-5,ASOS
20013614,93740,,FAY,FAYETTEVILLE RGNL AP,FAYETTEVILLE RGNL AP,UNITED,STATES,NC,CUMBERLAND,34.99139,-78.88028,186,-5,"AIRWAYS,ASOS"
30000623,53870,,AKH,GASTONIA MUNI AP,GASTONIA MUNI AP,UNITED,STATES,NC,GASTON,35.19667,-81.15583,-99999,-5,"AIRWAYS,ASOS"
20013711,13713,313510,GSB,GOLDSBORO S JOHNSON AFB,GOLDSBORO 4 SE,UNITED,STATES,NC,WAYNE,35.3444,-77.9647,109,-5,"ASOS,COOP,USHCN"
10006893,3810,314020,HKY,HICKORY FAA AP,HICKORY FAA AP,UNITED,STATES,NC,BURKE,35.7425,-81.3819,1143,-5,"AIRWAYS,ASOS,COOP"
30000682,93782,,MEB,LAURINBURG MAXTON AP,LAURINBURG MAXTON AP,UNITED,STATES,NC,SCOTLAND,34.79167,-79.36611,-99999,-5,"AIRWAYS,ASOS"
20013574,13776,315182,LBT,LUBERTION REGIONAL AP,LUMBERTON REGIONAL AP,UNITED,STATES,NC,ROBESON,34.608,-79.0591,121,-5,"AIRWAYS,ASOS,COOP"
30000626,53872,,EQY,MONROE AP,MONROE AP,UNITED,STATES,NC,UNION,35.01694,-80.62056,-99999,-5,"AIRWAYS,ASOS"
20013622,93719,316108,EWN,NEW BERN CRAVEN CO AP,NEW BERN - ASOS,UNITED,STATES,NC,CRAVEN,35.0677,-77.048,19,-5,"AIRWAYS,ASOS,COOP"
20013958,13723,313630,GSO,PIEDMONT TRIAD INTL AP,GREENSBORO  AP,UNITED,STATES,NC,GUILFORD,36.0969,-79.9432,890,-5,"ASOS,COOP"
20013893,13722,317069,RDU,RALEIGH DURHAM INTL AP,RALEIGH  AP,UNITED,STATES,NC,WAKE,35.8923,-78.7819,416,-5,"ASOS,COOP"
30000683,93781,,RZZ,ROANOKE RAPIDS AP,ROANOKE RAPIDS AP,UNITED,STATES,NC,HALIFAX,36.43944,-77.70972,-99999,-5,"AIRWAYS,ASOS"
20013892,93759,,RWI,ROCKY MT WILSON AP,ROCKY MT WILSON AP,UNITED,STATES,NC,NASH,35.855,-77.89306,-99999,-5,ASOS
20013575,93743,,NJM,SWANSBORO BOGUE FLD MCAF,SWANSBORO BOGUE FLD MCAF,UNITED,STATES,NC,CARTERET,34.68333,-77.03333,-99999,-5,ASOS
20013557,13748,319457,ILM,WILMINGTON INTL AP,WILMINGTON INTL AP,UNITED,STATES,NC,NEW HANOVER,34.2675,-77.8997,33,-5,"ASOS,COOP"
20013970,93807,,INT,WINSTON SALEM RYNLDS AP,WINSTON SALEM RYNLDS AP,UNITED,STATES,NC,FORSYTH,36.13361,-80.22222,-99999,-5,"AIRWAYS,ASOS"
20014195,24011,320819,BIS,BISMARCK MUNI AP,BISMARCK MUNI AP,UNITED,STATES,ND,BURLEIGH,46.7825,-100.7572,1651,-6,"ASOS,COOP,WXSVC"
10007195,14914,322859,FAR,FARGO HECTOR INTL AP,FARGO HECTOR INTL AP,UNITED,STATES,ND,CASS,46.92528,-96.81111,900,-6,"AIRWAYS,ASOS,COOP"
10500012,94041,,N60,GARRISON,GARRISON,UNITED,STATES,ND,MCLEAN,47.64583,-101.43944,1910,-6,ASOS
20014332,14916,323616,GFK,GRAND FORKS INTL AP,GRAND FORKS INTL AP,UNITED,STATES,ND,GRAND FORKS,47.9428,-97.1839,842,-6,"AIRWAYS,ASOS,COOP,WXSVC"
20014500,94038,,HEI,HETTINGER MUNI AP,HETTINGER MUNI AP,UNITED,STATES,ND,ADAMS,46.01389,-102.65472,-99999,-7,"AIRWAYS,ASOS"
10007271,14919,324413,JMS,JAMESTOWN MUNI AP,JAMESTOWN MUNI AP,UNITED,STATES,ND,STUTSMAN,46.9258,-98.6691,1494,-6,"ASOS,COOP,WXSVC"
20014374,24013,325988,MOT,MINOT INTL AP,MINOT INTL AP,UNITED,STATES,ND,WARD,48.2552,-101.2733,1665,-6,"AIRWAYS,ASOS,COOP"
20014197,24012,322183,DIK,THEODORE ROOSEVELT AP,THEODORE ROOSEVELT AP,UNITED,STATES,ND,STARK,46.7994,-102.7972,2580,-7,"ASOS,COOP,WXSVC"
10007500,94014,329425,ISN,WILLISTON SLOULIN INTL AP,WILLISTON SLOULIN FLD,UNITED,STATES,ND,WILLIAMS,48.1738,-103.6366,1902,-6,"ASOS,COOP,WXSVC"
20013358,24044,250131,AIA,ALLIANCE MUNI AP,ALLIANCE MUNICIPAL AIRPORT ASO,UNITED,STATES,NE,BOX BUTTE,42.0573,-102.8017,3929,-7,"AIRWAYS,ASOS,COOP"
20013257,94946,,BBW,BROKEN BOW MUNI AP,BROKEN BOW MUNI AP,UNITED,STATES,NE,CUSTER,41.43333,-99.63333,2530,-6,"AIRWAYS,ASOS"
20013443,24017,251576,CDR,CHADRON MUNI AP,CHADRON MUNI AP,UNITED,STATES,NE,DAWES,42.8374,-103.0981,3294,-7,"ASOS,COOP"
10007601,94957,,FNB,FALLS CITY BRENNER FLD,FALLS CITY BRENNER FLD,UNITED,STATES,NE,RICHARDSON,40.08028,-95.59194,980,-6,ASOS
20013149,14935,253395,GRI,GRAND ISLAND AP,GRAND ISLAND CTR NE AP,UNITED,STATES,NE,HALL,40.9611,-98.3136,1840,-6,"AIRWAYS,ASOS,COOP,WXSVC"
10007632,94949,253659,HSI,HASTINGS MUNI AP,HASTINGS MUNICIPAL AIRPORT,UNITED,STATES,NE,ADAMS,40.6005,-98.4258,1961,-6,"AIRWAYS,ASOS,COOP"
20013038,24091,,IML,IMPERIAL MUNI AP,IMPERIAL MUNI AP,UNITED,STATES,NE,CHASE,40.51,-101.62,3268,-7,ASOS
20013124,14939,254795,LNK,LINCOLN MUNI AP,LINCOLN AP,UNITED,STATES,NE,LANCASTER,40.8508,-96.7475,1190,-6,"AIRWAYS,ASOS,COOP"
20012976,94040,,MCK,MCCOOK MUNI AP,MCCOOK MUNI AP,UNITED,STATES,NE,RED WILLOW,40.20639,-100.59139,-99999,-6,"AIRWAYS,ASOS"
20013330,14941,255995,OFK,NORFOLK KARL STEFAN AP,NORFOLK AP,UNITED,STATES,NE,MADISON,41.9855,-97.4352,1551,-6,"ASOS,COOP,WXSVC"
20013182,24023,256065,LBF,NORTH PLATTE RGNL AP,NORTH PLATTE RGNL AP,UNITED,STATES,NE,LINCOLN,41.1213,-100.6694,2778,-6,"ASOS,COOP,WXSVC"
20013226,14942,256255,OMA,OMAHA EPPLEY AIRFIELD,OMAHA EPPLEY AIRFIELD,UNITED,STATES,NE,DOUGLAS,41.3102,-95.8991,982,-6,"AIRWAYS,ASOS,COOP"
20013285,94958,256335,ODX,ORD EVELYN SHARP FLD,EVELYN SHARP FIELD,UNITED,STATES,NE,VALLEY,41.62333,-98.94833,2064,-6,"ASOS,COOP"
20013320,24028,257665,BFF,SCOTTSBLUFF HEILIG AP,SCOTTSBLUFF AP,UNITED,STATES,NE,SCOTTS BLUFF,41.8705,-103.593,3945,-7,"ASOS,COOP,WXSVC"
20013190,24030,257835,SNY,SIDNEY MUNI AP,SIDNEY MUNICIPAL AIRPORT,UNITED,STATES,NE,CHEYENNE,41.0993,-102.9863,4296,-7,"AIRWAYS,ASOS,COOP"
10007761,94978,,TQE,TEKAMAH MUNI AP,TEKAMAH MUNI AP,UNITED,STATES,NE,BURT,41.76361,-96.17778,1028,-6,"AIRWAYS,ASOS"
20013446,24032,258760,VTN,VALENTINE MILLER FLD,VALENTINE MILLER AP,UNITED,STATES,NE,CHERRY,42.8783,-100.55,2590,-6,"ASOS,COOP,WXSVC"
20018718,94700,,BML,BERLIN MUNI AP,BERLIN MUNI AP,UNITED,STATES,NH,COOS,44.57611,-71.17861,-99999,-5,"AIRWAYS,ASOS"
20018627,14745,271683,CON,CONCORD MUNI AP,CONCORD ASOS,UNITED,STATES,NH,MERRIMACK,43.1952,-71.5011,346,-5,"ASOS,COOP"
10007811,54770,,AFN,JAFFREY MUNI AP,JAFFREY MUNI AP,UNITED,STATES,NH,CHESHIRE,42.805,-72.00361,1040,-5,"AIRWAYS,ASOS"
20018665,94765,,LEB,LEBANON MUNI AP,LEBANON MUNI AP,UNITED,STATES,NH,GRAFTON,43.62639,-72.30472,598,-5,"AIRWAYS,ASOS"
20018587,14710,,MHT,MANCHESTER AP,MANCHESTER AP,UNITED,STATES,NH,HILLSBOROUGH,42.93333,-71.43833,225,-5,"AIRWAYS,ASOS"
20018632,54791,,DAW,ROCHESTER SKYHAVEN AP,ROCHESTER SKYHAVEN AP,UNITED,STATES,NH,STRAFFORD,43.27806,-70.92222,-99999,-5,"AIRWAYS,ASOS"
10007832,54728,,HIE,WHITEFIELD MT WASHINGTON AP,WHITEFIELD MT WASHINGTON AP,UNITED,STATES,NH,COOS,44.3675,-71.545,-99999,-5,"AIRWAYS,ASOS"
30000696,54779,,12N,ANDOVER AEROFLEX AP,ANDOVER AEROFLEX AP,UNITED,STATES,NJ,SUSSEX,41.00889,-74.73667,-99999,-5,ASOS
20018774,93730,280311,ACY,ATLANTIC CITY INTL AP,ATLANTIC CITY INTL AP,UNITED,STATES,NJ,ATLANTIC,39.4494,-74.5672,60,-5,"ASOS,COOP"
20018931,54743,,CDW,CALDWELL ESSEX CO AP,CALDWELL ESSEX CO AP,UNITED,STATES,NJ,ESSEX,40.87639,-74.28306,-99999,-5,ASOS
20018769,13735,285581,MIV,MILLVILLE MUNI AP,MILVILLE FAA AP,UNITED,STATES,NJ,CUMBERLAND,39.3667,-75.0667,70,-5,"AIRWAYS,ASOS,COOP"
30000702,93780,,VAY,MT HOLLY S JERSEY AP,MT HOLLY S JERSEY AP,UNITED,STATES,NJ,BURLINGTON,39.94917,-74.84167,-99999,-5,"AIRWAYS,ASOS"
20018901,14734,286026,EWR,NEWARK INTL AP,NEWARK INTL AP,UNITED,STATES,NJ,ESSEX,40.6825,-74.16944,7,-5,"ASOS,COOP"
30000775,54785,,SMQ,SOMERVILLE SOMERSET AP,SOMERVILLE SOMERSET AP,UNITED,STATES,NJ,SOMERSET,40.62389,-74.66944,-99999,-5,ASOS
30001095,54793,,FWN,SUSSEX AP,SUSSEX AP,UNITED,STATES,NJ,SUSSEX,41.20028,-74.62306,-99999,-5,ASOS
20018925,94741,,TEB,TETERBORO AP,TETERBORO AP,UNITED,STATES,NJ,BERGEN,40.85,-74.06139,-99999,-5,ASOS
20018853,14792,,TTN,TRENTON MERCER CO AP,TRENTON MERCER CO AP,UNITED,STATES,NJ,MERCER,40.27694,-74.81583,184,-5,"AIRWAYS,ASOS"
20020581,23050,290234,ABQ,ALBUQUERQUE INTL AP,ALBUQUERQUE INTL AP,UNITED,STATES,NM,BERNALILLO,35.0419,-106.6155,5310,-7,"AIRSAMPLE,AIRWAYS,ASOS,COOP"
10007976,93033,291475,CNM,CARLSBAD CAVERN CITY AP,CAVERN CITY AIRPORT,UNITED,STATES,NM,EDDY,32.3335,-104.258,3232,-7,"AIRWAYS,ASOS,COOP,WXSVC"
20020805,23051,291887,CAO,CLAYTON MUNI AIR PK,CLAYTON MUNI ARPK AP,UNITED,STATES,NM,UNION,36.4486,-103.1539,4960,-7,"AIRSAMPLE,ASOS,COOP,USHCN"
30000703,3027,,CQC,CLINES CORNERS,CLINES CORNERS,UNITED,STATES,NM,TORRANCE,35.00278,-105.66278,7086,-7,ASOS
20020268,23078,,DMN,DEMING MUNI AP,DEMING MUNI AP,UNITED,STATES,NM,LUNA,32.26222,-107.72056,4301,-7,"AIRWAYS,ASOS"
20020855,23090,,FMN,FARMINGTON RGNL AP,FARMINGTON RGNL AP,UNITED,STATES,NM,SAN JUAN,36.74361,-108.22917,5495,-7,"AIRWAYS,ASOS"
10008017,23081,293422,GUP,GALLUP MUNI AP,GALLUP MUNI AP,UNITED,STATES,NM,MCKINLEY,35.5144,-108.794,6471,-7,"ASOS,COOP"
20020679,23054,,LVS,LAS VEGAS MUNI AP,LAS VEGAS MUNI AP,UNITED,STATES,NM,SAN MIGUEL,35.65417,-105.14194,-99999,-7,ASOS
20020849,23052,,RTN,RATON MUNI CREWS AP,RATON MUNI CREWS AP,UNITED,STATES,NM,COLFAX,36.74139,-104.50222,-99999,-7,ASOS
20020385,23009,297610,ROW,ROSWELL IND AIR PK,ROSWELL IND AP,UNITED,STATES,NM,CHAVES,33.3075,-104.5083,3649,-7,"AIRSAMPLE,AIRWAYS,ASOS,COOP,USHCN"
20020673,23049,,SAF,SANTA FE CO MUNI AP,SANTA FE CO MUNI AP,UNITED,STATES,NM,SANTA FE,35.61694,-106.08889,-99999,-7,"AIRWAYS,ASOS"
20020377,93045,,TCS,TRUTH OR CONSEQUENCE AP,TRUTH OR CONSEQUENCE AP,UNITED,STATES,NM,SIERRA,33.23667,-107.26806,-99999,-7,ASOS
20020600,23048,,TCC,TUCUMCARI MUNI AP,TUCUMCARI MUNI AP,UNITED,STATES,NM,QUAY,35.18222,-103.60306,-99999,-7,ASOS
10008130,24121,262573,EKO,ELKO RGNL AP,ELKO RGNL AP,UNITED,STATES,NV,ELKO,40.8288,-115.7886,5030,-8,"AIRWAYS,ASOS,COOP,USHCN"
10008132,23154,262631,ELY,ELY YELLAND FLD AP,ELY AIRPORT,UNITED,STATES,NV,WHITE PINE,39.2952,-114.8466,6262,-8,"AIRWAYS,ASOS,COOP"
20019163,3170,262710,P68,EUREKA AIRPORT,EUREKA AP,UNITED,STATES,NV,EUREKA,39.6013,-116.0055,5936,-8,"ASOS,COOP"
30001056,53123,,VGT,LAS VEGAS AIR TERMINAL,LAS VEGAS AIR TERMINAL,UNITED,STATES,NV,CLARK,36.21167,-115.19583,-99999,-8,ASOS
20018983,23169,264436,LAS,LAS VEGAS MCCARRAN AP,LAS VEGAS AP,UNITED,STATES,NV,CLARK,36.0719,-115.1634,2180,-8,"AIRSAMPLE,AIRWAYS,ASOS,COOP"
20019202,24172,264700,LOL,LOVELOCK DERBY FLD,LOVELOCK DERBY FLD AP,UNITED,STATES,NV,PERSHING,40.0681,-118.5692,3902,-8,"ASOS,COOP"
20019361,3160,262251,DRA,MERCURY DESERT ROCK AP,DESERT ROCK AP,UNITED,STATES,NV,NYE,36.6206,-116.0278,3230,-8,"ASOS,COOP"
20019168,23185,266779,RNO,RENO TAHOE INTL AP,RENO AP,UNITED,STATES,NV,WASHOE,39.4838,-119.7711,4410,-8,"ASOS,COOP,USHCN"
20019076,23153,268170,TPH,TONOPAH,TONOPAH AIRPORT,UNITED,STATES,NV,NYE,38.0511,-117.0902,5395,-8,"AIRWAYS,ASOS,COOP"
30002760,53145,,BJN,TONOPAH TEST RNG #74 NELLIS AF,TONOPAH TEST RNG #74 NELLIS AF,UNITED,STATES,NV,NYE,37.61722,-116.26417,5760,-8,"ASOS,MILITARY"
20019267,24128,269171,WMC,WINNEMUCCA MUNI AP,WINNEMUCCA AP,UNITED,STATES,NV,HUMBOLDT,40.9017,-117.808,4296,-8,"AIRWAYS,ASOS,COOP,USHCN"
20019897,14735,300042,ALB,ALBANY AP,ALBANY INTL AP,UNITED,STATES,NY,ALBANY,42.7431,-73.8092,312,-5,"ASOS,COOP,USHCN"
20019695,4725,300687,BGM,BINGHAMTON GREATER AP,BINGHAMTON GREATER AP,UNITED,STATES,NY,BROOME,42.2068,-75.98,1595,-5,"AIRWAYS,ASOS,COOP,USHCN"
20019948,14733,301012,BUF,BUFFALO NIAGARA INTL AP,BUFFALO NIAGARA INTL,UNITED,STATES,NY,ERIE,42.9408,-78.7358,716,-5,"ASOS,COOP,USHCN"
10008286,94704,,DSV,DANSVILLE MUNI AP,DANSVILLE MUNI AP,UNITED,STATES,NY,LIVINGSTON,42.57083,-77.71333,-99999,-5,ASOS
20019828,14747,,DKK,DUNKIRK CHAUTAUQUA AP,DUNKIRK CHAUTAUQUA AP,UNITED,STATES,NY,CHAUTAUQUA,42.49333,-79.27222,666,-5,"AIRWAYS,ASOS"
20019669,14748,,ELM,ELMIRA CORNING RGNL AP,ELMIRA CORNING RGNL AP,UNITED,STATES,NY,CHEMUNG,42.15944,-76.89194,-99999,-5,"AIRWAYS,ASOS"
20019437,54787,,FRG,FARMINGDALE AP,FARMINGDALE AP,UNITED,STATES,NY,SUFFOLK,40.73417,-73.41694,-99999,-5,"AIRWAYS,ASOS"
30000707,54773,,FZY,FULTON OSWEGO CO AP,FULTON OSWEGO CO AP,UNITED,STATES,NY,OSWEGO,43.34972,-76.38472,-99999,-5,"AIRWAYS,ASOS"
20020056,14750,303294,GFL,GLENS FALLS AP,GLENS FALLS AP,UNITED,STATES,NY,WARREN,43.35,-73.6167,321,-5,"ASOS,COOP"
20020179,94725,,MSS,MASSENA INTL AP,MASSENA INTL AP,UNITED,STATES,NY,ST. LAWRENCE,44.93583,-74.84583,214,-5,ASOS
30000709,54780,,MTP,MONTAUK AP,MONTAUK AP,UNITED,STATES,NY,SUFFOLK,41.07306,-71.92333,7,-5,ASOS
20019547,4789,,MGJ,MONTGOMERY ORANGE AP,MONTGOMERY ORANGE AP,UNITED,STATES,NY,ORANGE,41.50917,-74.265,-99999,-5,"AIRWAYS,ASOS"
20019453,94728,305801,NYC,NEW YORK CNTRL PK TWR,NY CITY CNTRL PARK,UNITED,STATES,NY,NEW YORK,40.77889,-73.96917,130,-5,"ASOS,COOP,USHCN"
20019418,94789,305803,JFK,NEW YORK JFK INTL AP,NEW YORK JFK INTL AP,UNITED,STATES,NY,QUEENS,40.63861,-73.76222,11,-5,"ASOS,COOP"
20019451,14732,305811,LGA,NEW YORK LAGUARDIA AP,NEW YORK LA GUARDIA AP,UNITED,STATES,NY,QUEENS,40.77944,-73.88028,11,-5,"ASOS,COOP"
20020008,4724,305841,IAG,NIAGARA FALLS INTL AP,NIAGARA FALLS ASOS,UNITED,STATES,NY,NIAGARA,43.10833,-78.93806,585,-5,"AIRWAYS,ASOS,COOP"
30000708,54778,,PEO,PENN YAN AP,PENN YAN AP,UNITED,STATES,NY,YATES,42.6425,-77.05639,-99999,-5,"AIRWAYS,ASOS"
20020165,94733,,PLB,PLATTSBURGH CLINTON AP,PLATTSBURGH CLINTON AP,UNITED,STATES,NY,CLINTON,44.68722,-73.52306,-99999,-5,"AIRWAYS,ASOS"
10008479,14757,306821,POU,POUGHKEEPSIE DUTCHESS CO AP,POUGHKEEPSIE AIRPORT,UNITED,STATES,NY,DUTCHESS,41.6266,-73.8842,166,-5,"ASOS,COOP"
20020006,14768,307167,ROC,ROCHESTER GTR INTL AP,ROCHESTER INTL AP,UNITED,STATES,NY,MONROE,43.1167,-77.6767,539,-5,"ASOS,COOP,USHCN"
20020155,94740,,SLK,SARANAC RGNL AP,SARANAC RGNL AP,UNITED,STATES,NY,FRANKLIN,44.38528,-74.20667,-99999,-5,"AIRWAYS,ASOS"
30000859,54790,,HWV,SHIRLEY BROOKHAVEN AP,SHIRLEY BROOKHAVEN AP,UNITED,STATES,NY,SUFFOLK,40.82167,-72.86889,-99999,-5,"AIRWAYS,ASOS"
10008542,14771,308383,SYR,SYRACUSE HANCOCK INTL AP,SYRACUSE HANCOCK  AP,UNITED,STATES,NY,ONONDAGA,43.1111,-76.1038,413,-5,"ASOS,COOP,USHCN"
20020128,94790,309005,ART,WATERTOWN INTL AP,WATERTOWN AP,UNITED,STATES,NY,JEFFERSON,43.9922,-76.0217,318,-5,"ASOS,COOP"
20020229,54757,,ELZ,WELLSVILLE MUNI AP,WELLSVILLE MUNI AP,UNITED,STATES,NY,ALLEGANY,42.10944,-77.99194,2124,-5,"AIRWAYS,ASOS"
20019502,94745,309140,HPN,WESTCHESTER CO AP,WESTCHESTER CO AP,UNITED,STATES,NY,WESTCHESTER,41.06694,-73.7075,379,-5,"AIRWAYS,ASOS,COOP"
20019468,14719,,FOK,WESTHAMPTN GABRESKI AP,WESTHAMPTN GABRESKI AP,UNITED,STATES,NY,SUFFOLK,40.84361,-72.63222,-99999,-5,"AIRWAYS,ASOS"
20015516,14895,330058,CAK,AKRON CANTON RGNL AP,AKRON CANTON WSO AP,UNITED,STATES,OH,SUMMIT,40.91667,-81.43333,1208,-5,"ASOS,COOP"
20015537,14813,,AKR,AKRON FULTON INTL AP,AKRON FULTON INTL AP,UNITED,STATES,OH,SUMMIT,41.0375,-81.46417,1044,-5,"AIRWAYS,ASOS"
20015658,4857,,HZY,ASHTABULA CO AP,ASHTABULA CO AP,UNITED,STATES,OH,ASHTABULA,41.77806,-80.69583,-99999,-5,"AIRWAYS,ASOS"
20015170,93812,,LUK,CINCINNATI LUNKEN AP,CINCINNATI LUNKEN AP,UNITED,STATES,OH,HAMILTON,39.10333,-84.41889,490,-5,"AIRWAYS,ASOS,COOP"
20015621,4853,,BKL,CLEVELAND BURKE AP,CLEVELAND BURKE AP,UNITED,STATES,OH,CUYAHOGA,41.5175,-81.68361,-99999,-5,"AIRWAYS,ASOS"
20015601,14820,331657,CLE,CLEVELAND HOPKINS INTL AP,CLEVELAND WSFO AP,UNITED,STATES,OH,CUYAHOGA,41.405,-81.85278,770,-5,"ASOS,COOP"
20015365,4804,,OSU,COLUMBUS OHIO STATE UNIV AP,COLUMBUS OHIO STATE UNIV AP,UNITED,STATES,OH,FRANKLIN,40.07806,-83.07806,-99999,-5,ASOS
20015351,14821,331786,CMH,COLUMBUS PORT COLUMBUS INTL AP,COLUMBUS WSO AP,UNITED,STATES,OH,FRANKLIN,39.99139,-82.88083,810,-5,"ASOS,COOP"
20015333,93815,332075,DAY,DAYTON INTL AP,DAYTON WSO AP,UNITED,STATES,OH,MONTGOMERY,39.90611,-84.21861,1000,-5,"ASOS,COOP"
20015246,53859,,MGY,DAYTON WRIGHT BROS AP,DAYTON WRIGHT BROS AP,UNITED,STATES,OH,MONTGOMERY,39.59361,-84.22639,-99999,-5,"AIRWAYS,ASOS"
30072016,4851,332099,DFI,DEFIANCE AP,DEFIANCE AP,UNITED,STATES,OH,DEFIANCE,41.3375,-84.42889,707,-5,"ASOS,COOP"
30000710,4849,,LPR,ELYRIA LORAIN CO AP,ELYRIA LORAIN CO AP,UNITED,STATES,OH,LORAIN,41.34611,-82.17944,-99999,-5,"AIRWAYS,ASOS"
20015532,14825,332786,FDY,FINDLAY AP,FINDLAY FAA AP,UNITED,STATES,OH,HANCOCK,41.01361,-83.66861,800,-5,"ASOS,COOP"
20015214,53855,,HAO,HAMILTON BUTLER CO RGNL AP,HAMILTON BUTLER CO RGNL AP,UNITED,STATES,OH,BUTLER,39.36444,-84.52472,-99999,-5,"AIRWAYS,ASOS"
30000713,53844,,LHQ,LANCASTER FAIRFIELD AP,LANCASTER FAIRFIELD AP,UNITED,STATES,OH,FAIRFIELD,39.75556,-82.65722,-99999,-5,"AIRWAYS,ASOS"
20015477,4850,334547,AOH,LIMA ALLEN COUNTY AP,LIMA AP,UNITED,STATES,OH,ALLEN,40.7075,-84.02722,975,-5,"AIRWAYS,ASOS,COOP"
20015500,14891,334865,MFD,MANSFIELD LAHM MUNI AP,MANSFIELD WSO AP,UNITED,STATES,OH,RICHLAND,40.82028,-82.51778,1295,-5,"ASOS,COOP"
20015465,4855,,MNN,MARION MUNI AP,MARION MUNI AP,UNITED,STATES,OH,MARION,40.61611,-83.06361,-99999,-5,"AIRWAYS,ASOS"
20015435,4852,,PHD,NEW PHILADELPHIA FLD,NEW PHILADELPHIA FLD,UNITED,STATES,OH,TUSCARAWAS,40.47194,-81.42361,-99999,-5,"AIRWAYS,ASOS"
30000645,4858,,VTA,NEWARK HEATH AP,NEWARK HEATH AP,UNITED,STATES,OH,LICKING,40.02278,-82.4625,-99999,-5,"AIRWAYS,ASOS"
20015630,94830,338357,TOL,TOLEDO EXPRESS AP,TOLEDO EXPRESS WSO AP,UNITED,STATES,OH,LUCAS,41.58861,-83.80139,669,-5,"ASOS,COOP"
20015629,4848,,TDZ,TOLEDO METCALF FLD,TOLEDO METCALF FLD,UNITED,STATES,OH,WOOD,41.56306,-83.47639,-99999,-5,"AIRWAYS,ASOS"
10009079,13841,,ILN,WILMINGTON AIRBORNE PARK,WILMINGTON AIRBORNE PARK,UNITED,STATES,OH,CLINTON,39.42028,-83.82167,-99999,-5,ASOS
30000711,4842,,BJJ,WOOSTER WAYNE CO AP,WOOSTER WAYNE CO AP,UNITED,STATES,OH,WAYNE,40.87306,-81.88667,-99999,-5,"AIRWAYS,ASOS"
20015570,14852,339406,YNG,YOUNGSTOWN RGNL AP,YOUNGSTOWN WSO AP,UNITED,STATES,OH,TRUMBULL,41.25444,-80.67389,1180,-5,"ASOS,COOP"
20015339,93824,339417,ZZV,ZANESVILLE MUNI AP,ZANESVILLE FAA AP,UNITED,STATES,OH,MUSKINGUM,39.94444,-81.89222,880,-5,"ASOS,COOP"
20015040,3959,340548,BVO,BARTLESVILLE F P FLD,BARTLESVILLE MUNICIPAL AP,UNITED,STATES,OK,OSAGE,36.7683,-96.0261,715,-6,"AIRWAYS,ASOS,COOP,USHCN"
20014745,3932,341906,CSM,CLINTON SHERMAN AP,CLINTON SHERMAN AP,UNITED,STATES,OK,WASHITA,35.21,-99.12,1922,-6,"ASOS,COOP"
10009210,3981,343350,FDR,FREDERICK MUNI AP,FREDERICK MUNICIPAL AP,UNITED,STATES,OK,TILLMAN,34.21,-98.59,1255,-6,"ASOS,COOP"
20014956,13975,343407,GAG,GAGE AP,GAGE AP,UNITED,STATES,OK,ELLIS,36.2967,-99.7689,2191,-6,"AIRWAYS,ASOS,COOP"
30000721,53913,343818,GOK,GUTHRIE MUNI AP,GUTHRIE MUNICIPAL AP,UNITED,STATES,OK,LOGAN,35.8517,-97.4142,1068,-6,"AIRWAYS,ASOS,COOP"
30000585,3030,,GUY,GUYMON MUNI AP,GUYMON MUNI AP,UNITED,STATES,OK,TEXAS,36.68167,-101.50528,-99999,-6,ASOS
20014686,93986,344204,HBR,HOBART MUNI AP,HOBART MUNICIPAL  AIRPORT,UNITED,STATES,OK,KIOWA,34.9894,-99.0525,1556,-6,"AIRWAYS,ASOS,COOP,USHCN"
20014601,3950,345066,LAW,LAWTON MUNI AP,LAWTON-FT. SILL REGIONAL AP,UNITED,STATES,OK,COMANCHE,34.5584,-98.4172,1069,-6,"AIRWAYS,ASOS,COOP"
20014653,93950,345664,MLC,MCALESTER RGNL AP,MCALESTER REGIONAL AIRPORT,UNITED,STATES,OK,PITTSBURG,34.8822,-95.783,770,-6,"AIRWAYS,ASOS,COOP"
20014816,93953,,MKO,MUSKOGEE DAVIS FLD,MUSKOGEE DAVIS FLD,UNITED,STATES,OK,MUSKOGEE,35.65667,-95.36139,-99999,-6,"AIRWAYS,ASOS"
10009318,3954,,PWA,OKLAHOMA CITY POST AP,OKLAHOMA CITY POST AP,UNITED,STATES,OK,OKLAHOMA,35.53417,-97.64694,1297,-6,"AIRWAYS,ASOS"
10009317,13967,346661,OKC,OKLAHOMA CITY WILL ROGERS AP,OKLAHOMA CITY WILL ROGERS AP,UNITED,STATES,OK,OKLAHOMA,35.3889,-97.6006,1285,-6,"ASOS,COOP"
20015031,13969,347201,PNC,PONCA CITY MUNI AP,PONCA CITY MUNI AP,UNITED,STATES,OK,KAY,36.73667,-97.10194,1000,-6,"ASOS,COOP"
20014915,3965,348500,SWO,STILLWATER RGNL AP,STILLWATER RGNL AP,UNITED,STATES,OK,PAYNE,36.1624,-97.0894,984,-6,"ASOS,COOP"
20014908,13968,348992,TUL,TULSA INTL AP,TULSA INTL AP,UNITED,STATES,OK,TULSA,36.1994,-95.8872,650,-6,"AIRSAMPLE,ASOS,COOP"
20014882,53908,,RVS,TULSA R L JONES JR AP,TULSA R L JONES JR AP,UNITED,STATES,OK,TULSA,36.03944,-95.98444,-99999,-6,"AIRWAYS,ASOS"
20016511,94224,350328,AST,ASTORIA RGNL AP,ASTORIA AP PORT OF,UNITED,STATES,OR,CLATSOP,46.1569,-123.8825,9,-8,"ASOS,COOP,USHCN"
20016304,94281,,UAO,AURORA STATE AP,AURORA STATE AP,UNITED,STATES,OR,MARION,45.24861,-122.76861,-99999,-8,"AIRWAYS,ASOS"
20016203,24130,350412,BKE,BAKER CITY MUNI AP,BAKER CITY AP,UNITED,STATES,OR,BAKER,44.8428,-117.8086,3361,-8,"AIRWAYS,ASOS,COOP,USHCN"
20015976,94185,351175,BNO,BURNS MUNI AP,BURNS MUNI AP,UNITED,STATES,OR,HARNEY,43.595,-118.9564,4140,-8,"ASOS,COOP"
20016073,24221,352709,EUG,EUGENE MAHLON SWEET AP,EUGENE-MAHLON SWEET FLD,UNITED,STATES,OR,LANE,44.1278,-123.2206,353,-8,"ASOS,COOP"
30000723,4113,,HRI,HERMISTON MUNI AP,HERMISTON MUNI AP,UNITED,STATES,OR,UMATILLA,45.82583,-119.26111,-99999,-8,"AIRWAYS,ASOS"
20015721,94236,,LMT,KLAMATH FALLS INTL AP,KLAMATH FALLS AG STN,UNITED,STATES,OR,KLAMATH,42.14694,-121.72417,4084,-8,"AIRWAYS,ASOS,COOP"
20016292,94273,,MMV,MCMINNVILLE MUNI AP,MCMINNVILLE MUNI AP,UNITED,STATES,OR,YAMHILL,45.19472,-123.13389,-99999,-8,"AIRWAYS,ASOS"
20016379,24152,,MEH,MEACHAM,MEACHAM,UNITED,STATES,OR,UMATILLA,45.51139,-118.42472,3723,-8,ASOS
20015763,24225,355429,MFR,MEDFORD ROGUE VLY AP,MEDFORD INTL AP,UNITED,STATES,OR,JACKSON,42.3811,-122.8722,1297,-8,"ASOS,COOP"
20016045,24162,356295,ONO,ONTARIO MUNI AP,ONTARIO,UNITED,STATES,OR,MALHEUR,44.02056,-117.01278,2193,-7,"AIRWAYS,ASOS,COOP"
20016436,24155,356546,PDT,PENDLETON E OR RGNL AP,PENDLETON E OR RGNL AP,UNITED,STATES,OR,UMATILLA,45.6983,-118.8547,1486,-8,"ASOS,COOP"
20016428,24229,356751,PDX,PORTLAND INTL AP,PORTLAND INTL AP,UNITED,STATES,OR,MULTNOMAH,45.5958,-122.6093,19,-8,"ASOS,COOP"
10009634,24242,,TTD,PORTLAND TROUTDALE AP,PORTLAND TROUTDALE AP,UNITED,STATES,OR,MULTNOMAH,45.55111,-122.40889,29,-8,"AIRWAYS,ASOS"
20016402,94261,,HIO,PORTLAND-HILLSBORO AP,PORTLAND-HILLSBORO AP,UNITED,STATES,OR,WASHINGTON,45.54056,-122.94861,-99999,-8,"AIRWAYS,ASOS"
20016089,24230,357062,RDM,REDMOND ROBERTS FLD,REDMOND AP,UNITED,STATES,OR,DESCHUTES,44.2558,-121.1392,3043,-8,"AIRWAYS,ASOS,COOP"
20015787,94107,,REO,ROME ST AP,ROME ST AP,UNITED,STATES,OR,MALHEUR,42.59056,-117.86444,4050,-8,ASOS
20015909,24231,,RBG,ROSEBURG RGNL AP,ROSEBURG RGNL AP,UNITED,STATES,OR,DOUGLAS,43.23889,-123.35472,-99999,-8,"AIRWAYS,ASOS"
20016230,24232,357500,SLE,SALEM MCNARY FLD,SALEM AP MCNARY FLD,UNITED,STATES,OR,MARION,44.905,-123.0011,205,-8,"ASOS,COOP"
30000722,4201,,SPB,SCAPPOOSE IND AP,SCAPPOOSE IND AP,UNITED,STATES,OR,COLUMBIA,45.77278,-122.86111,-99999,-8,"AIRWAYS,ASOS"
20015798,24235,357698,SXT,SEXTON SUMMIT,SEXTON SUMMIT,UNITED,STATES,OR,JOSEPHINE,42.6003,-123.3641,3832,-8,"ASOS,COOP"
20016842,14737,360106,ABE,ALLENTOWN INTL AP,ALLENTOWN AP,UNITED,STATES,PA,LEHIGH,40.65083,-75.4492,390,-5,"ASOS,COOP,USHCN"
20016724,14736,,AOO,ALTOONA BLAIR CO AP,ALTOONA BLAIR CO AP,UNITED,STATES,PA,BLAIR,40.29639,-78.32028,1480,-5,ASOS
10009754,4751,360865,BFD,BRADFORD RGNL AP,BRADFORD FAA AP,UNITED,STATES,PA,MCKEAN,41.8,-78.6333,2142,-5,"AIRWAYS,ASOS,COOP"
30001034,54792,,FIG,CLEARFIELD LAWRENCE AP,CLEARFIELD LAWRENCE AP,UNITED,STATES,PA,CLEARFIELD,41.04667,-78.41167,-99999,-5,ASOS
30000804,54786,,DYL,DOYLESTOWN AP,DOYLESTOWN AP,UNITED,STATES,PA,BUCKS,40.33,-75.1225,-99999,-5,"AIRWAYS,ASOS"
20016994,4787,362260,DUJ,DUBOIS JEFFERSON CO AP,DUBOIS FAA AP,UNITED,STATES,PA,JEFFERSON,41.17833,-78.89889,1814,-5,"ASOS,COOP"
20017207,14860,362682,ERI,ERIE INTL AP,ERIE WSO AP,UNITED,STATES,PA,ERIE,42.08,-80.1825,730,-5,"ASOS,COOP,USHCN"
20016690,14751,,CXY,HARRISBURG CPTL CY AP,HARRISBURG CPTL CY AP,UNITED,STATES,PA,YORK,40.21722,-76.85139,340,-5,"AIRWAYS,ASOS"
20016730,4726,,JST,JOHNSTOWN CAMBRIA CO AP,JOHNSTOWN CAMBRIA CO AP,UNITED,STATES,PA,CAMBRIA,40.31611,-78.83389,-99999,-5,ASOS
20016644,54737,,LNS,LANCASTER AP,LANCASTER AP,UNITED,STATES,PA,LANCASTER,40.12028,-76.29444,-99999,-5,"AIRWAYS,ASOS"
20016665,14711,365703,MDT,MIDDLETOWN HARRISBURG INTL AP,MIDDLETOWN HARRISBG AP,UNITED,STATES,PA,DAUPHIN,40.1962,-76.7724,312,-5,"AIRWAYS,ASOS,COOP"
30000860,54789,,MPO,MT POCONO MOUNTAINS AP,MT POCONO MOUNTAINS AP,UNITED,STATES,PA,MONROE,41.13889,-75.37944,-99999,-5,"AIRWAYS,ASOS"
10010044,13739,366889,PHL,PHILADELPHIA INTL AP,PHILADELPHIA INTL AP,UNITED,STATES,PA,PHILADELPHIA,39.8683,-75.2311,10,-5,"ASOS,COOP"
20016623,94732,,PNE,PHILADELPHIA NE AP,PHILADELPHIA NE AP,UNITED,STATES,PA,PHILADELPHIA,40.08194,-75.01111,100,-5,ASOS
20016756,14762,,AGC,PITTSBURGH ALLEGHENY CO AP,PITTSBURGH ALLEGHENY CO AP,UNITED,STATES,PA,ALLEGHENY,40.35472,-79.92167,1248,-5,"AIRWAYS,ASOS,WXSVC"
20016809,94823,366993,PIT,PITTSBURGH INTL AP,PITTSBURGH ASOS,UNITED,STATES,PA,ALLEGHENY,40.4846,-80.2144,1203,-5,"ASOS,COOP"
30000729,4843,,GKJ,PORT MEADVILLE AP,PORT MEADVILLE AP,UNITED,STATES,PA,CRAWFORD,41.62639,-80.215,-99999,-5,"AIRWAYS,ASOS"
30000664,54782,,PTW,POTTSTOWN LIMERICK AP,POTTSTOWN LIMERICK AP,UNITED,STATES,PA,MONTGOMERY,40.23833,-75.55722,-99999,-5,"AIRWAYS,ASOS"
30000755,14770,,SEG,SELINSGROVE PENN VLY AP,SELINSGROVE PENN VLY AP,UNITED,STATES,PA,SNYDER,40.82056,-76.86417,444,-5,"AIRWAYS,ASOS"
20017030,14777,369705,AVP,WILKES-BARRE INTL AP,WILKES-BARRE INTL AP,UNITED,STATES,PA,LUZERNE,41.3336,-75.7269,930,-5,"ASOS,COOP"
20017021,14778,369728,IPT,WILLIAMSPORT,WILLIAMSPORT REGIONAL AP,UNITED,STATES,PA,LYCOMING,41.2433,-76.9217,520,-5,"ASOS,COOP,USHCN"
20016586,93778,,THV,YORK AP,YORK AP,UNITED,STATES,PA,YORK,39.91806,-76.87417,-99999,-5,"AIRWAYS,ASOS"
20023940,11630,668412,NRR,ROOSEVELT ROADS,ROOSEVELT ROADS,UNITED,STATES,PR,CEIBA,18.255,-65.64083,33,-4,"ASOS,COOP"
20017298,14787,,UUU,NEWPORT STATE AP,NEWPORT STATE AP,UNITED,STATES,RI,NEWPORT,41.53333,-71.28333,-99999,-5,"AIRWAYS,ASOS"
20017302,14765,376698,PVD,PROVIDENCE T F GREEN AP,PROVIDENCE,UNITED,STATES,RI,KENT,41.7219,-71.4325,60,-5,"ASOS,COOP,USHCN"
20017282,14794,,WST,WESTERLY STATE AP,WESTERLY STATE AP,UNITED,STATES,RI,WASHINGTON,41.34972,-71.79889,-99999,-5,"AIRWAYS,ASOS"
20017492,93846,380170,AND,ANDERSON CO AP,ANDERSON FAA AP,UNITED,STATES,SC,ANDERSON,34.4977,-82.7097,760,-5,"AIRWAYS,ASOS,COOP"
20017349,13880,381544,CHS,CHARLESTON INTL AP,CHARLESTON INTL. AIRPORT,UNITED,STATES,SC,CHARLESTON,32.8986,-80.0402,40,-5,"ASOS,COOP,UPPERAIR"
30000760,53850,,CEU,CLEMSON OCONEE CO AP,CLEMSON OCONEE CO AP,UNITED,STATES,SC,OCONEE,34.67194,-82.88639,-99999,-5,ASOS
20017442,13883,381939,CAE,COLUMBIA METRO AP,COLUMBIA METRO AP,UNITED,STATES,SC,LEXINGTON,33.9419,-81.1181,225,-5,"ASOS,COOP"
30000761,53867,,CUB,COLUMBIA OWENS DWTN AP,COLUMBIA OWENS DWTN AP,UNITED,STATES,SC,RICHLAND,33.97056,-80.99583,-99999,-5,"AIRWAYS,ASOS"
20017458,13744,383106,FLO,FLORENCE RGNL AP,FLORENCE RGNL AP,UNITED,STATES,SC,FLORENCE,34.1852,-79.7238,146,-5,"AIRWAYS,ASOS,COOP"
10010298,13886,,GMU,GREENVILLE DWTN AP,GREENVILLE DWTN AP,UNITED,STATES,SC,GREENVILLE,34.84611,-82.34611,-99999,-5,"AIRWAYS,ASOS"
20017474,53874,,GRD,GREENWOOD CO AP,GREENWOOD CO AP,UNITED,STATES,SC,GREENWOOD,34.24861,-82.15917,-99999,-5,ASOS
20017545,3870,383747,GSP,GRNVL SPART AP,GRNVL SPART INTL AP,UNITED,STATES,SC,SPARTANBURG,34.8842,-82.2209,943,-5,"ASOS,COOP,USHCN"
20017417,93718,386300,CRE,N MYRTLE BCH AP,NORTH MYRTLE BEACH,UNITED,STATES,SC,HORRY,33.81167,-78.72389,32,-5,"ASOS,COOP"
30000763,53854,,OGB,ORANGEBURG MUNI AP,ORANGEBURG MUNI AP,UNITED,STATES,SC,ORANGEBURG,33.46167,-80.85806,-99999,-5,"AIRWAYS,ASOS"
30000624,53871,,UZA,ROCK HILL YORK CO AP,ROCK HILL YORK CO AP,UNITED,STATES,SC,YORK,34.98694,-81.0575,-99999,-5,"AIRWAYS,ASOS"
20017923,14929,390020,ABR,ABERDEEN RGNL AP,ABERDEEN RGNL AP,UNITED,STATES,SD,BROWN,45.4433,-98.413,1297,-6,"ASOS,COOP,USHCN,WXSVC"
20018009,94037,,2WX,BUFFALO ASOS,BUFFALO ASOS,UNITED,STATES,SD,HARDING,45.60444,-103.54639,3004,-7,ASOS
20017707,94943,,9V9,CHAMBERLAIN MUNI AP,CHAMBERLAIN MUNI AP,UNITED,STATES,SD,BRULE,43.76667,-99.31833,1703,-6,ASOS
20017973,94032,,CUT,CUSTER CO AP,CUSTER CO AP,UNITED,STATES,SD,CUSTER,43.73306,-103.61139,5545,-7,ASOS
30000765,94056,,D07,FAITH MUNI AP,FAITH MUNI AP,UNITED,STATES,SD,MEADE,45.03194,-102.01917,2580,-7,ASOS
20017782,14936,394127,HON,HURON RGNL AP,HURON AP,UNITED,STATES,SD,BEADLE,44.3981,-98.2231,1280,-6,"ASOS,COOP,WXSVC"
20017698,94950,395670,MHE,MITCHELL MUNI AP,MITCHELL AP,UNITED,STATES,SD,DAVISON,43.7743,-98.0384,1299,-6,"AIRWAYS,ASOS,COOP"
30000771,94052,,MBG,MOBRIDGE MUNI AP,MOBRIDGE MUNI AP,UNITED,STATES,SD,WALWORTH,45.54639,-100.40778,-99999,-6,"AIRWAYS,ASOS"
20017744,24024,,PHP,PHILIP AP,PHILIP AP,UNITED,STATES,SD,HAAKON,44.05111,-101.60111,2206,-7,ASOS
20017788,24025,396597,PIR,PIERRE RGNL AP,PIERRE RGNL AP,UNITED,STATES,SD,HUGHES,44.3813,-100.2855,1742,-6,"AIRWAYS,ASOS,COOP,USHCN"
20018011,94039,,IEN,PINE RIDGE AP,PINE RIDGE AP,UNITED,STATES,SD,SHANNON,43.02056,-102.51833,-99999,-7,"AIRWAYS,ASOS"
20017746,24090,396937,RAP,RAPID CITY REGIONAL AP,RAPID CITY REGIONAL AP,UNITED,STATES,SD,PENNINGTON,44.0433,-103.0536,3160,-7,"ASOS,COOP"
20017674,14944,397667,FSD,SIOUX FALLS FOSS FLD,SIOUX FALLS AP,UNITED,STATES,SD,MINNEHAHA,43.5778,-96.7539,1428,-6,"ASOS,COOP,WXSVC"
30000764,94993,,8D3,SISSETON MUNI AP,SISSETON MUNI AP,UNITED,STATES,SD,ROBERTS,45.66889,-96.99139,-99999,-6,ASOS
20017862,14946,398932,ATY,WATERTOWN RGNL AP,WATERTOWN RGNL AP,UNITED,STATES,SD,CODINGTON,44.9047,-97.1494,1748,-6,"AIRWAYS,ASOS,COOP,USHCN"
30000773,94990,,ICR,WINNER WILEY FLD,WINNER WILEY FLD,UNITED,STATES,SD,TRIPP,43.39056,-99.84222,2032,-6,"AIRWAYS,ASOS"
20018488,13877,401094,TRI,BRISTOL TRI CITY AP,BRISTOL AP,UNITED,STATES,TN,SULLIVAN,36.4731,-82.4044,1500,-5,"AIRSAMPLE,ASOS,COOP"
20018023,13882,401656,CHA,CHATTANOOGA LOVELL AP,CHATTANOOGA AP,UNITED,STATES,TN,HAMILTON,35.0311,-85.2014,671,-5,"AIRSAMPLE,AIRWAYS,ASOS,COOP,WXSVC"
20018535,3894,401792,CKV,CLARKSVILLE OUTLAW AP,CLARKSVILLE OUTLAW FLD,UNITED,STATES,TN,MONTGOMERY,36.62389,-87.41944,560,-6,"ASOS,COOP"
20018293,3847,402197,CSV,CROSSVILLE MEM AP,CROSSVILLE AP,UNITED,STATES,TN,CUMBERLAND,35.9509,-85.0813,1867,-6,"ASOS,COOP"
20018183,3811,404556,MKL,JACKSON MCKELLAR AP,JACKSON MCKELLAR- SIPES AP,UNITED,STATES,TN,MADISON,35.593,-88.9167,433,-6,"AIRWAYS,ASOS,COOP"
20018222,13891,404950,TYS,KNOXVILLE MCGHEE TYSON AP,KNOXVILLE AP,UNITED,STATES,TN,BLOUNT,35.8181,-83.9858,962,-5,"AIRSAMPLE,AIRWAYS,ASOS,COOP"
20018044,13893,405954,MEM,MEMPHIS INTL AP,MEMPHIS INTL AP,UNITED,STATES,TN,SHELBY,35.0564,-89.9865,254,-6,"AIRSAMPLE,ASOS,COOP"
20018355,13897,406402,BNA,NASHVILLE INTL AP,NASHVILLE ASOS,UNITED,STATES,TN,DAVIDSON,36.11889,-86.68917,600,-6,"AIRSAMPLE,ASOS,COOP"
30000752,53868,406742,OQT,OAK RIDGE ASOS,OAK RIDGE ASOS,UNITED,STATES,TN,ANDERSON,36.0236,-84.2375,910,-5,"AIRSAMPLE,ASOS,COOP"
30015509,13827,,MQY,SMYRNA AP,SMYRNA AP,UNITED,STATES,TN,RUTHERFORD,36.00889,-86.52,-99999,-6,ASOS
20025347,13962,410016,ABI,ABILENE RGNL AP,ABILENE RGNL AP,UNITED,STATES,TX,TAYLOR,32.4105,-99.6822,1790,-6,"AIRSAMPLE,ASOS,COOP"
20024187,12932,410145,ALI,ALICE INTL AP,ALICE INTL AP,UNITED,STATES,TX,JIM WELLS,27.74111,-98.02472,173,-6,"AIRWAYS,ASOS,COOP"
20025849,23047,410211,AMA,AMARILLO INTL AP,AMARILLO WSO AP,UNITED,STATES,TX,POTTER,35.2295,-101.7042,3604,-6,"ASOS,COOP"
20024332,12976,,LBX,ANGLETON BRAZORIA AP,ANGLETON BRAZORIA AP,UNITED,STATES,TX,BRAZORIA,29.10972,-95.46194,25,-6,"AIRWAYS,ASOS"
30000780,53907,,GKY,ARLINGTON MUNI AP,ARLINGTON MUNI AP,UNITED,STATES,TX,TARRANT,32.66361,-97.09389,-99999,-6,"AIRWAYS,ASOS"
20024650,13904,410429,AUS,AUSTIN BERGSTROM AP,AUSTIN BERGSTROM,UNITED,STATES,TX,TRAVIS,30.1831,-97.6799,480,-6,"AIRWAYS,ASOS,COOP"
20024676,13958,410428,ATT,AUSTIN-CAMP MABRY,AUSTIN-CAMP MABRY,UNITED,STATES,TX,TRAVIS,30.3208,-97.7604,670,-6,"ASOS,COOP"
20025880,3024,,BGD,BORGER HUTCHINSON CO AP,BORGER HUTCHINSON CO AP,UNITED,STATES,TX,HUTCHINSON,35.695,-101.395,-99999,-6,"AIRWAYS,ASOS"
20024081,12919,411136,BRO,BROWNSVILLE INTL AP,BROWNSVILLE INTL AP,UNITED,STATES,TX,CAMERON,25.9141,-97.423,24,-6,"AIRWAYS,ASOS,COOP,UPPERAIR"
30000164,3999,411255,BMQ,BURNET MUNI AP,BURNET MUNI AP,UNITED,STATES,TX,BURNET,30.7406,-98.2354,1288,-6,"AIRWAYS,ASOS,COOP"
20025805,23007,411698,CDS,CHILDRESS MUNI AP,CHILDRESS MUNI AP,UNITED,STATES,TX,CHILDRESS,34.4272,-100.2831,1951,-6,"AIRWAYS,ASOS,COOP"
20024752,3904,411889,CLL,COLLEGE STN,CLG STN EASTERWD AP,UNITED,STATES,TX,BRAZOS,30.58917,-96.36472,305,-6,"AIRWAYS,ASOS,COOP"
30000777,53902,,CXO,CONROE MONTGOMERY CO AP,CONROE MONTGOMERY CO AP,UNITED,STATES,TX,MONTGOMERY,30.35667,-95.41389,-99999,-6,"AIRWAYS,ASOS"
20024184,12946,,NGW,CORPUS CHRISTI CABANISS FLD,CORPUS CHRISTI CABANISS FLD,UNITED,STATES,TX,NUECES,27.7,-97.43333,-99999,-6,ASOS
20024190,12924,412015,CRP,CORPUS CHRISTI INTL AP,CORPUS CHRISTI AP,UNITED,STATES,TX,NUECES,27.7742,-97.5122,44,-6,"ASOS,COOP,USHCN,WXSVC"
30014218,12973,,NVT,CORPUS CHRISTI WALDRON OLF,CORPUS CHRISTI WALDRON OLF,UNITED,STATES,TX,NUECES,27.63333,-97.31667,25,-6,ASOS
30000776,53912,,CRS,CORSICANA CAMPBELL FLD,CORSICANA CAMPBELL FLD,UNITED,STATES,TX,NAVARRO,32.03111,-96.39889,-99999,-6,"AIRWAYS,ASOS"
20024238,12947,412048,COT,COTULLA LA SALLE CO AP,COTULLA LA SALLE CO AP,UNITED,STATES,TX,LA SALLE,28.45667,-99.21833,476,-6,"ASOS,COOP"
20025897,93042,412240,DHT,DALHART MUNI AP,DALHART FAA AP,UNITED,STATES,TX,DALLAM,36.0167,-102.55,3990,-6,"ASOS,COOP"
20025974,3927,412242,DFW,DALLAS FT WORTH AP,DAL-FTW WSCMO AP,UNITED,STATES,TX,TARRANT,32.8978,-97.0189,560,-6,"ASOS,COOP"
10011000,13960,412244,DAL,DALLAS LOVE FLD,DALLAS FAA AP,UNITED,STATES,TX,DALLAS,32.8519,-96.8555,440,-6,"ASOS,COOP"
20025419,3971,,RBD,DALLAS REDBIRD AP,DALLAS REDBIRD AP,UNITED,STATES,TX,DALLAS,32.68083,-96.86806,658,-6,"AIRWAYS,ASOS"
20024396,22010,412360,DRT,DEL RIO INTL AP,DEL RIO AP,UNITED,STATES,TX,VAL VERDE,29.3784,-100.927,999,-6,"ASOS,COOP"
10011045,3991,,DTO,DENTON MUNI AP,DENTON MUNI AP,UNITED,STATES,TX,DENTON,33.20611,-97.19889,-99999,-6,"AIRWAYS,ASOS"
30000790,3032,,6R6,DRYDEN TERRELL CO AP,DRYDEN TERRELL CO AP,UNITED,STATES,TX,TERRELL,30.04806,-102.21306,-99999,-6,ASOS
20025176,23044,412797,ELP,EL PASO INTL AP,EL PASO AP,UNITED,STATES,TX,EL PASO,31.81111,-106.37583,3918,-7,"ASOS,COOP,USHCN"
20024867,23091,,FST,FT STOCKTON PECOS AP,FT STOCKTON PECOS AP,UNITED,STATES,TX,PECOS,30.91194,-102.91667,3010,-6,"AIRWAYS,ASOS"
20026048,53909,,AFW,FT WORTH ALLIANCE AP,FT WORTH ALLIANCE AP,UNITED,STATES,TX,TARRANT,32.97333,-97.31806,685,-6,"AIRWAYS,ASOS"
20025472,13961,413284,FTW,FT WORTH MEACHAM FLD,FT WORTH MEACHAM FLD,UNITED,STATES,TX,TARRANT,32.81917,-97.36139,687,-6,"AIRWAYS,ASOS,COOP"
20024352,12923,413431,GLS,GALVESTON SCHOLES FLD,GALVESTON,UNITED,STATES,TX,GALVESTON,29.2733,-94.8592,5,-6,"AIRWAYS,ASOS,COOP"
20024100,12904,,HRL,HARLINGEN RIO GRANDE AP,HARLINGEN RIO GRANDE AP,UNITED,STATES,TX,CAMERON,26.22806,-97.65417,34,-6,"AIRWAYS,ASOS"
20024393,12962,414256,HDO,HONDO MUNI AP,HONDO MUNI AP,UNITED,STATES,TX,MEDINA,29.3601,-99.1742,920,-6,"AIRWAYS,ASOS,COOP"
30000786,12975,,LVJ,HOUSTON CLOVER FLD,HOUSTON CLOVER FLD,UNITED,STATES,TX,BRAZORIA,29.51889,-95.24167,-99999,-6,"AIRWAYS,ASOS"
20024452,12918,414307,HOU,HOUSTON HOBBY AP,HOUSTON HOBBY AP,UNITED,STATES,TX,HARRIS,29.63806,-95.28194,44,-6,"AIRWAYS,ASOS,COOP"
20024608,53910,,DWH,HOUSTON HOOKS MEM AP,HOUSTON HOOKS MEM AP,UNITED,STATES,TX,HARRIS,30.0675,-95.55611,-99999,-6,"AIRWAYS,ASOS"
20024558,12960,414300,IAH,HOUSTON INTERCONT AP,HOUSTON BUSH INTL AP,UNITED,STATES,TX,HARRIS,29.98,-95.36,95,-6,"ASOS,COOP"
30001096,12977,418728,SGR,HOUSTON SUGARLAND MEM,SUGAR LAND,UNITED,STATES,TX,FORT BEND,29.62194,-95.65667,84,-6,"ASOS,COOP"
20024801,53903,,UTS,HUNTSVILLE MUNI AP,HUNTSVILLE MUNI AP,UNITED,STATES,TX,WALKER,30.74389,-95.58611,-99999,-6,"AIRWAYS,ASOS"
20024741,13973,,JCT,JUNCTION KIMBLE CO AP,JUNCTION KIMBLE CO AP,UNITED,STATES,TX,KIMBLE,30.51083,-99.76639,-99999,-6,"AIRWAYS,ASOS"
10011443,3901,415342,GGG,LONGVIEW E TX RGNL AP,LONGVIEW E TX RGNL AP,UNITED,STATES,TX,GREGG,32.38472,-94.71167,365,-6,"AIRWAYS,ASOS,COOP"
20025707,23042,415411,LBB,LUBBOCK INTL AP,LUBBOCK INTL AP,UNITED,STATES,TX,LUBBOCK,33.6656,-101.8231,3254,-6,"AIRWAYS,ASOS,COOP"
20024960,93987,415424,LFK,LUFKIN ANGELINA CO AP,LUFKIN ANGELINA CO AP,UNITED,STATES,TX,ANGELINA,31.23611,-94.75444,288,-6,"ASOS,COOP"
20024099,12959,415702,MFE,MCALLEN MILLER INTL AP,MCALLEN INTL AP,UNITED,STATES,TX,HIDALGO,26.18389,-98.25389,100,-6,"AIRWAYS,ASOS,COOP,WXSVC"
30000787,53914,415766,TKI,MCKINNEY MUNI AP,MCKINNEY MUNI AP,UNITED,STATES,TX,COLLIN,33.19028,-96.59139,586,-6,"AIRWAYS,ASOS,COOP"
20025211,23023,415890,MAF,MIDLAND INTL AP,MIDLAND INTL  AP,UNITED,STATES,TX,MIDLAND,31.9475,-102.2086,2862,-6,"ASOS,COOP,WXSVC"
20025456,93985,415958,MWL,MINERAL WELLS AP,MINERAL WELLS AP,UNITED,STATES,TX,PALO PINTO,32.78167,-98.06028,930,-6,"ASOS,COOP"
30000099,12971,416275,BAZ,NEW BRAUNFELS MUNI AP,NEW BRAUNFELS AP,UNITED,STATES,TX,GUADALUPE,29.7089,-98.0458,645,-6,"AIRWAYS,ASOS,COOP"
30000586,3031,,ODO,ODESSA SCHLEMEYER FLD,ODESSA SCHLEMEYER FLD,UNITED,STATES,TX,ECTOR,31.92056,-102.38667,-99999,-6,"AIRWAYS,ASOS"
30014219,12974,,NOG,ORANGE GROVE,ORANGE GROVE,UNITED,STATES,TX,ARANSAS,27.9,-98.05,257,-6,ASOS
20024269,12935,416750,PSX,PALACIOS MUNI AP,PALACIOS MUNI AP,UNITED,STATES,TX,MATAGORDA,28.72472,-96.25361,12,-6,"ASOS,COOP"
20025175,23055,,GDP,PINE SPRINGS NP,PINE SPRINGS NP,UNITED,STATES,TX,CULBERSON,31.83111,-104.80889,5456,-6,ASOS
20024557,12917,417174,BPT,PORT ARTHUR SE TX AP,PORT ARTHUR AP,UNITED,STATES,TX,JEFFERSON,29.95056,-94.02056,16,-6,"ASOS,COOP"
20024096,12957,,PIL,PORT ISABEL CAMERON AP,PORT ISABEL CAMERON AP,UNITED,STATES,TX,CAMERON,26.16583,-97.34583,-99999,-6,"AIRWAYS,ASOS"
30000103,12972,417698,RKP,ROCKPORT ARANSAS CO AP,ROCKPORT ASOS,UNITED,STATES,TX,ARANSAS,28.08361,-97.04639,22,-6,"AIRWAYS,ASOS,COOP"
20025023,23034,417943,SJT,SAN ANGELO MATHIS FLD,SAN ANGELO MATHIS  FLD,UNITED,STATES,TX,TOM GREEN,31.35167,-100.495,1916,-6,"AIRSAMPLE,ASOS,COOP"
20024426,12921,417945,SAT,SAN ANTONIO INTL AP,SAN ANTONIO INT'L AP,UNITED,STATES,TX,BEXAR,29.5443,-98.4839,789,-6,"ASOS,COOP,USHCN"
20024384,12970,418653,SSF,SAN ANTONIO STINSON AP,SAN ANTONIO STINSON AP,UNITED,STATES,TX,BEXAR,29.3389,-98.472,571,-6,"AIRWAYS,ASOS,COOP"
30000788,53911,,TRL,TERRELL MUNI AP,TERRELL MUNI AP,UNITED,STATES,TX,KAUFMAN,32.71,-96.26722,-99999,-6,"AIRWAYS,ASOS"
20025325,13972,419213,TYR,TYLER POUNDS FLD,TYLER POUNDS FLD,UNITED,STATES,TX,SMITH,32.35417,-95.4025,544,-6,"AIRWAYS,ASOS,COOP,WXSVC"
20024281,12912,419364,VCT,VICTORIA RGNL AP,VICTORIA ASOS,UNITED,STATES,TX,VICTORIA,28.8614,-96.9303,115,-6,"ASOS,COOP"
20025097,13959,419419,ACT,WACO RGNL AP,WACO RGNL AP,UNITED,STATES,TX,MCLENNAN,31.61889,-97.22833,500,-6,"ASOS,COOP"
20025762,13966,419729,SPS,WICHITA FALLS MUNI AP,WICHITA FALLS MUNI AP,UNITED,STATES,TX,WICHITA,33.9786,-98.4928,1017,-6,"ASOS,COOP"
20025151,23040,419830,INK,WINKLER CO AP,WINK FAA AP,UNITED,STATES,TX,WINKLER,31.7801,-103.2018,2807,-6,"ASOS,COOP,WXSVC"
20026131,23159,,BCE,BRYCE CANYON AP,BRYCE CANYON AP,UNITED,STATES,UT,GARFIELD,37.70639,-112.14556,-99999,-7,ASOS
20026129,93129,421267,CDC,CEDAR CITY MUNI AP,CEDAR CITY AP,UNITED,STATES,UT,IRON,37.7086,-113.0944,5586,-7,"AIRWAYS,ASOS,COOP"
30002890,4134,,QCA,GRANITE PEAK DUGWAY PG,GRANITE PEAK DUGWAY PG,UNITED,STATES,UT,TOOELE,40.16056,-113.35083,-99999,-7,"ASOS,MILITARY"
20026585,94128,,LGU,LOGAN CACHE AP,LOGAN CACHE AP,UNITED,STATES,UT,CACHE,41.78722,-111.85333,-99999,-7,"AIRWAYS,ASOS"
30003690,23176,,MLF,MILFORD MUNI AP,MILFORD MUNI AP,UNITED,STATES,UT,BEAVER,38.41667,-113.01667,-99999,-7,ASOS
20026199,93075,421164,CNY,MOAB CANYONLAND AP,CANYONLANDS ASOS,UNITED,STATES,UT,GRAND,38.75,-109.76278,4560,-7,"AIRWAYS,ASOS,COOP"
20026257,93141,,PUC,PRICE CARBON CO AP,PRICE CARBON CO AP,UNITED,STATES,UT,CARBON,39.60917,-110.75472,-99999,-7,"AIRWAYS,ASOS"
20026463,24127,427598,SLC,SALT LAKE CITY INTL AP,SALT LAKE CITY INTL AP,UNITED,STATES,UT,SALT LAKE,40.7781,-111.9694,4225,-7,"ASOS,COOP"
30071738,94030,429116,VEL,VERNAL MUNI AP,VERNAL ASOS,UNITED,STATES,UT,UINTAH,40.44278,-109.51278,5270,-7,"ASOS,COOP"
10012264,93775,,OFP,ASHLAND HANOVER CO MUNI AP,ASHLAND HANOVER CO MUNI AP,UNITED,STATES,VA,HANOVER,37.70806,-77.43444,-99999,-5,"AIRWAYS,ASOS"
20027187,93736,,CHO,CHARLOTTESVILLE AP,CHARLOTTESVILLE AP,UNITED,STATES,VA,ALBEMARLE,38.13861,-78.45306,-99999,-5,"AIRWAYS,ASOS"
20026838,13728,442250,DAN,DANVILLE RGNL AP,DANVILLE REGIONAL AP,UNITED,STATES,VA,PITTSYLVANIA,36.5728,-79.3361,571,-5,"ASOS,COOP"
20026854,13762,,NFE,FENTRESS NAAS,FENTRESS NAAS,UNITED,STATES,VA,CHESAPEAKE,36.695,-76.13556,-99999,-5,ASOS
20026974,13702,,LFI,LANGLEY AFB,LANGLEY AFB,UNITED,STATES,VA,HAMPTON,37.08278,-76.36028,10,-5,ASOS
20027050,13733,445120,LYH,LYNCHBURG RGNL AP,LYNCHBURG INTL AP,UNITED,STATES,VA,CAMPBELL,37.3208,-79.2067,940,-5,"ASOS,COOP"
20026989,93741,446050,PHF,NEWPORT NEWS INTL AP,NEWPORT NEWS INTL AP,UNITED,STATES,VA,NEWPORT NEWS,37.13194,-76.49306,-99999,-5,ASOS
20026931,13737,446139,ORF,NORFOLK INTL AP,NORFOLK INTL AP,UNITED,STATES,VA,NORFOLK (CITY),36.9033,-76.1922,30,-5,"ASOS,COOP,USHCN"
20027083,13740,447201,RIC,RICHMOND INTL AP,RICHMOND INTL AP,UNITED,STATES,VA,HENRICO,37.505,-77.3202,164,-5,"ASOS,COOP"
20027051,13741,447285,ROA,ROANOKE RGNL AP,ROANOKE INTL AP,UNITED,STATES,VA,ROANOKE,37.3169,-79.9741,1175,-5,"ASOS,COOP"
30000799,93773,,AKQ,WAKEFIELD MUNI AP,WAKEFIELD MUNI AP,UNITED,STATES,VA,SUSSEX,36.98389,-77.00722,109,-5,"AIRWAYS,ASOS"
20027167,93739,448849,WAL,WALLOPS ISLAND FLIGHT FAC,WALLOPS ISLAND NASA TEST FACIL,UNITED,STATES,VA,ACCOMACK,37.9372,-75.4708,46,-5,"ASOS,COOP"
20027277,93738,448903,IAD,WASHINGTON DC DULLES AP,WASHGTN DULLES INTL AP,UNITED,STATES,VA,LOUDOUN,38.9408,-77.4636,290,-5,"ASOS,COOP"
20027254,13743,448906,DCA,WASHINGTON REAGAN AP,WASHINGTON REAGAN AP,UNITED,STATES,VA,ARLINGTON,38.8483,-77.0341,10,-5,"ASOS,COOP"
20024073,11640,678905,STT,CHARLOTTE AMALIE AP,TRUMAN FLD FAA AP # 2,UNITED,STATES,VI,ST. THOMAS,18.3363,-64.98,20,-4,"AIRWAYS,ASOS,COOP"
10012328,11624,670198,STX,CHRISTIANSTED AP,ALEX HAMILTON FIELD FAA,UNITED,STATES,VI,ST. CROIX,17.6997,-64.8125,61,-4,"ASOS,COOP"
20026774,94705,435278,MPV,BARRE MONTPELIER AP,MONTPELIER AP,UNITED,STATES,VT,WASHINGTON,44.2035,-72.5623,1126,-5,"AIRWAYS,ASOS,COOP"
20026693,54781,,DDH,BENNINGTON MORSE ST AP,BENNINGTON MORSE ST AP,UNITED,STATES,VT,BENNINGTON,42.89139,-73.24694,-99999,-5,"AIRWAYS,ASOS"
10012336,14742,431081,BTV,BURLINGTON INTL AP,BURLINGTON WSO AP,UNITED,STATES,VT,CHITTENDEN,44.4683,-73.1499,330,-5,"ASOS,COOP,USHCN"
10012351,54771,,MVL,MORRISVILLE STOWE STATE AP,MORRISVILLE STOWE STATE AP,UNITED,STATES,VT,LAMOILLE,44.53444,-72.61444,-99999,-5,"AIRWAYS,ASOS"
30072045,54742,437055,1V4,SAINT JOHNSBURY ASOS,SAINT JOHNSBURY ASOS,UNITED,STATES,VT,CALEDONIA,44.42,-72.01944,697,-5,"ASOS,COOP"
20026717,54740,,VSF,SPRINGFIELD HARTNESS AP,SPRINGFIELD HARTNESS AP,UNITED,STATES,VT,WINDSOR,43.34361,-72.51778,578,-5,"AIRWAYS,ASOS"
20027993,24217,,BLI,BELLINGHAM INTL AP,BELLINGHAM INTL AP,UNITED,STATES,WA,WHATCOM,48.79389,-122.53722,149,-8,"AIRWAYS,ASOS"
30014231,94297,,NRA,COUPEVILLE NOLF,COUPEVILLE NOLF,UNITED,STATES,WA,ISLAND,48.21667,-122.63333,199,-8,ASOS
20027836,94119,452064,DEW,DEER PARK AP,DEER PARK,UNITED,STATES,WA,SPOKANE,47.97417,-117.42833,2191,-8,"AIRWAYS,ASOS,COOP"
20027590,24220,,ELN,ELLENSBURG BOWERS FLD,ELLENSBURG BOWERS FLD,UNITED,STATES,WA,KITTITAS,47.03389,-120.53028,-99999,-8,"AIRWAYS,ASOS"
10012462,24141,452614,EPH,EPHRATA MUNI AP,EPHRATA AP,UNITED,STATES,WA,GRANT,47.3078,-119.5154,1252,-8,"AIRWAYS,ASOS,COOP"
20027832,24222,,PAE,EVERETT SNOHOMISH AP,EVERETT SNOHOMISH AP,UNITED,STATES,WA,SNOHOMISH,47.90778,-122.28028,-99999,-8,"AIRWAYS,ASOS"
20027950,94276,,FHR,FRIDAY HARBOR AP,FRIDAY HARBOR AP,UNITED,STATES,WA,SAN JUAN,48.52222,-123.02306,-99999,-8,"AIRWAYS,ASOS"
20027586,94225,453807,HQM,HOQUIAM BOWERMAN AP,HOQUIAM BOWERMAN AP,UNITED,STATES,WA,GRAYS HARBOR,46.9727,-123.9302,12,-8,"ASOS,COOP"
20027632,24110,,MWH,MOSES LAKE GRANT CO AP,MOSES LAKE GRANT CO AP,UNITED,STATES,WA,GRANT,47.20778,-119.31917,-99999,-8,"AIRWAYS,ASOS"
20027579,24227,456114,OLM,OLYMPIA AP,OLYMPIA AP,UNITED,STATES,WA,THURSTON,46.9733,-122.9033,188,-8,"ASOS,COOP"
20027883,94266,,CLM,PORT ANGELES INTL AP,PORT ANGELES INTL AP,UNITED,STATES,WA,CLALLAM,48.12028,-123.49833,-99999,-8,"AIRWAYS,ASOS"
20027537,94129,,PUW,PULLMAN MOSCOW RGNL AP,PULLMAN MOSCOW RGNL AP,UNITED,STATES,WA,WHITMAN,46.74389,-117.10861,-99999,-8,"AIRWAYS,ASOS"
20027854,94240,456858,UIL,QUILLAYUTE STATE AP,QUILLAYUTE AP,UNITED,STATES,WA,CLALLAM,47.9375,-124.555,185,-8,"ASOS,COOP"
20027739,94248,,RNT,RENTON MUNI AP,RENTON MUNI AP,UNITED,STATES,WA,KING,47.49333,-122.21444,-99999,-8,"AIRWAYS,ASOS"
20027740,24234,,BFI,SEATTLE BOEING FLD,SEATTLE BOEING FLD,UNITED,STATES,WA,KING,47.53028,-122.30083,-99999,-8,"AIRWAYS,ASOS"
20027732,24233,457473,SEA,SEATTLE TACOMA INTL AP,SEATTLE TACOMA AP,UNITED,STATES,WA,KING,47.4444,-122.3138,370,-8,"ASOS,COOP"
20027667,94227,457585,SHN,SHELTON SANDERSON FLD,SHELTON AP,UNITED,STATES,WA,MASON,47.238,-123.1408,271,-8,"ASOS,COOP"
20027763,94176,,SFF,SPOKANE FELTS FLD,SPOKANE FELTS FLD,UNITED,STATES,WA,SPOKANE,47.68306,-117.32139,-99999,-8,"AIRWAYS,ASOS"
20027756,24157,457938,GEG,SPOKANE INTL AP,SPOKANE INTERNATIONAL AIRPORT,UNITED,STATES,WA,SPOKANE,47.6216,-117.528,2353,-8,"AIRSAMPLE,ASOS,COOP,USHCN"
20027658,24237,458009,SMP,STAMPEDE PASS,STAMPEDE PASS,UNITED,STATES,WA,KITTITAS,47.2767,-121.3372,3959,-8,"ASOS,COOP"
20027670,94274,,TIW,TACOMA NARROWS AP,TACOMA NARROWS AP,UNITED,STATES,WA,PIERCE,47.2675,-122.57611,-99999,-8,"AIRWAYS,ASOS"
20027331,24219,451968,DLS,THE DALLES MUNI AP,DALLESPORT AP,UNITED,STATES,WA,KLICKITAT,45.6194,-121.1661,235,-8,"AIRWAYS,ASOS,COOP"
20027335,94298,,VUO,VANCOUVER PEARSON AP,VANCOUVER PEARSON AP,UNITED,STATES,WA,CLARK,45.62083,-122.65722,-99999,-8,"AIRWAYS,ASOS"
20027393,24160,,ALW,WALLA WALLA RGNL AP,WALLA WALLA RGNL AP,UNITED,STATES,WA,WALLA WALLA,46.09472,-118.28694,1166,-8,"AIRWAYS,ASOS"
20027708,94239,459082,EAT,WENATCHEE PANGBORN AP,WENATCHEE PANGBORN MEMORIAL AP,UNITED,STATES,WA,DOUGLAS,47.3977,-120.2013,1229,-8,"ASOS,COOP"
20027492,24243,459465,YKM,YAKIMA AIR TERMINAL,YAKIMA AP,UNITED,STATES,WA,YAKIMA,46.5683,-120.5428,1064,-8,"ASOS,COOP"
20021305,94929,,ASX,ASHLAND KENNEDY MEM AP,ASHLAND KENNEDY MEM AP,UNITED,STATES,WI,ASHLAND,46.54861,-90.91889,-99999,-6,"AIRWAYS,ASOS"
30000625,94994,,OVS,BOSCOBEL AP,BOSCOBEL AP,UNITED,STATES,WI,GRANT,43.15611,-90.6775,-99999,-6,"AIRWAYS,ASOS"
20021164,14991,472428,EAU,EAU CLAIRE RGNL AP,CHIPPEWA VALLEY RGNL  AP,UNITED,STATES,WI,CHIPPEWA,44.8665,-91.4879,885,-6,"ASOS,COOP,WXSVC"
20021060,4840,472836,FLD,FOND DU LAC CO AP,FOND DU LAC AP ASOS,UNITED,STATES,WI,FOND DU LAC,43.76944,-88.49083,807,-6,"AIRWAYS,ASOS"
20021126,14898,473269,GRB,GREEN BAY A S INTL AP,GREEN BAY A S INTL AP,UNITED,STATES,WI,BROWN,44.4794,-88.1366,687,-6,"ASOS,COOP,WXSVC"
20021279,94973,,HYR,HAYWARD MUNI AP,HAYWARD MUNI AP,UNITED,STATES,WI,SAWYER,46.02611,-91.44417,1204,-6,"AIRWAYS,ASOS"
30000340,4845,,ENW,KENOSHA RGNL AP,KENOSHA RGNL AP,UNITED,STATES,WI,KENOSHA,42.595,-87.93806,-99999,-6,"AIRWAYS,ASOS"
20021074,14920,474370,LSE,LA CROSSE MUNI AP,LA CROSSE MUNI AP,UNITED,STATES,WI,LA CROSSE,43.8788,-91.2527,652,-6,"AIRWAYS,ASOS,COOP"
20020998,14921,,LNR,LONE ROCK TRI CO AP,LONE ROCK TRI CO AP,UNITED,STATES,WI,SAUK,43.21194,-90.18139,-99999,-6,ASOS
20020992,14837,474961,MSN,MADISON DANE RGNL AP,MADISON DANE CO AP,UNITED,STATES,WI,DANE,43.1405,-89.3452,866,-6,"ASOS,COOP,WXSVC"
20021142,94985,,MFI,MARSHFIELD MUNI AP,MARSHFIELD MUNI AP,UNITED,STATES,WI,WOOD,44.63806,-90.1875,1255,-6,"AIRWAYS,ASOS"
20020968,14839,475479,MKE,MILWAUKEE MITCHELL AP,MILWAUKEE MITCHELL AP,UNITED,STATES,WI,MILWAUKEE,42.955,-87.9044,670,-6,"AIRSAMPLE,ASOS,COOP"
20021081,94855,,OSH,OSHKOSH WITTMAN AP,OSHKOSH WITTMAN AP,UNITED,STATES,WI,WINNEBAGO,43.98444,-88.55694,782,-6,"AIRWAYS,ASOS"
20020954,94818,,RAC,RACINE BATTEN AP,RACINE BATTEN AP,UNITED,STATES,WI,RACINE,42.76111,-87.81361,-99999,-6,"AIRWAYS,ASOS"
20021241,4803,477114,RHI,RHINELANDER ONEIDA AP,RHINELANDER ASOS,UNITED,STATES,WI,ONEIDA,45.6314,-89.4823,1624,-6,"AIRWAYS,ASOS,COOP"
20021059,4841,,SBM,SHEBOYGAN CO MEM AP,SHEBOYGAN CO MEM AP,UNITED,STATES,WI,SHEBOYGAN,43.76944,-87.85056,746,-6,"AIRWAYS,ASOS"
20021170,14897,478968,AUW,WAUSAU ASOS,WAUSAU ASOS,UNITED,STATES,WI,MARATHON,44.9288,-89.6277,1200,-6,"ASOS,COOP"
20021328,4826,,ISW,WISCONSIN RAPIDS ALEXANDER FLD,WISCONSIN RAPIDS ALEXANDER FLD,UNITED,STATES,WI,WOOD,44.35917,-89.83694,1019,-6,"AIRWAYS,ASOS"
20021378,3872,460582,BKW,BECKLEY RALEIGH CO AP,BECKLEY RALEIGH COUNTY AP,UNITED,STATES,WV,RALEIGH,37.7836,-81.123,2514,-5,"ASOS,COOP"
10013092,3859,460921,BLF,BLUEFIELD MERCER CO AP,BLUEFIELD MERCER CO AP,UNITED,STATES,WV,MERCER,37.2958,-81.2077,2870,-5,"ASOS,COOP"
20021438,13866,461570,CRW,CHARLESTON YEAGER AP,CHARLESTON YEAGER AP,UNITED,STATES,WV,KANAWHA,38.3794,-81.59,910,-5,"ASOS,COOP"
20021600,3802,,CKB,CLARKSBURG BENEDUM AP,CLARKSBURG BENEDUM AP,UNITED,STATES,WV,HARRISON,39.29556,-80.22889,-99999,-5,"AIRWAYS,ASOS"
20021513,13729,462718,EKN,ELKINS RANDOLPH CO AP,ELKINS RANDOLPH COUNTY AP,UNITED,STATES,WV,RANDOLPH,38.8853,-79.8528,1979,-5,"ASOS,COOP"
10013109,3860,464393,HTS,HUNTINGTON TRI STATE AP,HUNTINGTON TRI ST AP,UNITED,STATES,WV,WAYNE,38.365,-82.555,824,-5,"ASOS,COOP"
10013117,13734,465707,MRB,MARTINSBURG E WV RGNL AP,MARTINSBURG E WV RGNL AP,UNITED,STATES,WV,BERKELEY,39.4019,-77.9844,534,-5,"ASOS,COOP,USHCN"
20021671,13736,466202,MGW,MORGANTOWN HART FLD,MORGANTOWN HART FLD,UNITED,STATES,WV,MONONGALIA,39.64278,-79.91639,1240,-5,"AIRWAYS,ASOS,COOP"
20021640,3804,466849,PKB,PARKERSBURG WOOD CO AP,PARKERSBURG FAA AP,UNITED,STATES,WV,WOOD,39.2,-81.27,831,-5,"ASOS,COOP"
10013148,14894,,HLG,WHEELING OHIO CO AP,WHEELING OHIO CO AP,UNITED,STATES,WV,BROOKE,40.17639,-80.64722,1179,-5,"AIRWAYS,ASOS"
10013153,24164,,BPI,BIG PINEY MARBLETON AP,BIG PINEY MARBLETON AP,UNITED,STATES,WY,SUBLETTE,42.58444,-110.1075,6970,-7,"AIRWAYS,ASOS"
30000822,94054,,BYG,BUFFALO JOHNSON CO AP,BUFFALO JOHNSON CO AP,UNITED,STATES,WY,JOHNSON,44.38139,-106.72111,-99999,-7,"AIRWAYS,ASOS"
20022787,24089,481570,CPR,CASPER NATRONA CO AP,CASPER-NATRONA COUNTY AP,UNITED,STATES,WY,NATRONA,42.8977,-106.4739,5313,-7,"AIRWAYS,ASOS,COOP,WXSVC"
20022601,24018,481675,CYS,CHEYENNE MUNI AP,CHEYENNE WSFO AP,UNITED,STATES,WY,LARAMIE,41.15,-104.8167,6130,-7,"ASOS,COOP,USHCN,WXSVC"
30000823,94057,481980,DGW,CONVERSE CO AP ASOS,CONVERSE CO AP ASOS,UNITED,STATES,WY,CONVERSE,42.79611,-105.38028,4936,-7,"AIRWAYS,ASOS,COOP"
30000805,4111,,EVW,EVANSTON BURNS FLD,EVANSTON BURNS FLD,UNITED,STATES,WY,UINTA,41.27306,-111.03056,-99999,-7,"AIRWAYS,ASOS"
20022986,94023,,GCC,GILLETTE CAMPBELL AP,GILLETTE CAMPBELL AP,UNITED,STATES,WY,CAMPBELL,44.33944,-105.54194,4354,-7,"AIRWAYS,ASOS"
20023008,24048,,GEY,GREYBULL S BIG HORN AP,GREYBULL S BIG HORN AP,UNITED,STATES,WY,BIG HORN,44.51694,-108.08222,-99999,-7,"AIRWAYS,ASOS"
10013191,24021,485390,LND,LANDER HUNT FLD AP,LANDER AP,UNITED,STATES,WY,FREMONT,42.8154,-108.7261,5592,-7,"ASOS,COOP,WXSVC"
20022624,24022,485415,LAR,LARAMIE AP,LARAMIE AP,UNITED,STATES,WY,ALBANY,41.3167,-105.6833,7266,-7,"ASOS,COOP,USHCN"
20022673,24057,487533,RWL,RAWLINS AP,RAWLINS AP,UNITED,STATES,WY,CARBON,41.8,-107.2,6736,-7,"ASOS,COOP"
20022811,24061,,RIW,RIVERTON RGNL AP,RIVERTON RGNL AP,UNITED,STATES,WY,FREMONT,43.06417,-108.45889,5445,-7,"AIRWAYS,ASOS,WXSVC"
20022657,24027,487845,RKS,ROCK SPRINGS AP,ROCK SPRINGS AP,UNITED,STATES,WY,SWEETWATER,41.5944,-109.0529,6741,-7,"AIRWAYS,ASOS,AWOS,COOP,USHCN,WXSVC"
20023048,24029,488155,SHR,SHERIDAN CO AP,SHERIDAN AP,UNITED,STATES,WY,SHERIDAN,44.7694,-106.9688,3945,-7,"ASOS,COOP"
30000825,94053,488996,TOR,TORRINGTON MUNI AP,TORRINGTON MUNI AP ASOS,UNITED,STATES,WY,GOSHEN,42.0613,-104.1584,4199,-7,"AIRWAYS,ASOS,COOP"
20022936,24062,489785,WRL,WORLAND,WORLAND FAA AP,UNITED,STATES,WY,WASHAKIE,43.96583,-107.95083,4172,-7,"AIRWAYS,ASOS"
30000700,94173,,P60,YELLOWSTONE LAKE,YELLOWSTONE LAKE,UNITED,STATES,WY,YELLOWSTONE NATIONAL PARK,44.54444,-110.42111,7835,-7,ASOS